{
"type": "FeatureCollection",
"name": "urban_centres_2000",
"crs": { "type": "name", "properties": { "name": "urn:ogc:def:crs:OGC:1.3:CRS84" } },
"features": [
{ "type": "Feature", "properties": { "pop_grid": 63299, "pop_own": 59237, "area_own": 28.6 }, "geometry": { "type": "Polygon", "coordinates": [ [ [ 81.618749688145925, 29.280416751076846 ], [ 81.618749688145925, 29.272083417777395 ], [ 81.610416354845682, 29.272083417777395 ], [ 81.610416354845682, 29.255416751178494 ], [ 81.618749688145925, 29.255416751178494 ], [ 81.618749688145925, 29.230416751280138 ], [ 81.627083021446168, 29.230416751280138 ], [ 81.627083021446168, 29.222083417980688 ], [ 81.652083021346911, 29.222083417980688 ], [ 81.652083021346911, 29.230416751280138 ], [ 81.660416354647154, 29.230416751280138 ], [ 81.660416354647154, 29.238750084579589 ], [ 81.668749687947397, 29.238750084579589 ], [ 81.668749687947397, 29.24708341787904 ], [ 81.685416354547883, 29.24708341787904 ], [ 81.685416354547883, 29.255416751178494 ], [ 81.668749687947397, 29.255416751178494 ], [ 81.668749687947397, 29.263750084477945 ], [ 81.660416354647154, 29.263750084477945 ], [ 81.660416354647154, 29.280416751076846 ], [ 81.643749688046654, 29.280416751076846 ], [ 81.643749688046654, 29.272083417777395 ], [ 81.627083021446168, 29.272083417777395 ], [ 81.627083021446168, 29.280416751076846 ], [ 81.618749688145925, 29.280416751076846 ] ] ] } },
{ "type": "Feature", "properties": { "pop_grid": 102201, "pop_own": 102846, "area_own": 51.2 }, "geometry": { "type": "Polygon", "coordinates": [ [ [ 81.543749688443711, 29.213750084681237 ], [ 81.543749688443711, 29.197083418082336 ], [ 81.552083021743954, 29.197083418082336 ], [ 81.552083021743954, 29.188750084782885 ], [ 81.560416355044211, 29.188750084782885 ], [ 81.560416355044211, 29.16375008488453 ], [ 81.527083021843225, 29.16375008488453 ], [ 81.527083021843225, 29.147083418285629 ], [ 81.535416355143468, 29.147083418285629 ], [ 81.535416355143468, 29.138750084986178 ], [ 81.543749688443711, 29.138750084986178 ], [ 81.543749688443711, 29.130416751686727 ], [ 81.60208302154544, 29.130416751686727 ], [ 81.60208302154544, 29.122083418387277 ], [ 81.643749688046654, 29.122083418387277 ], [ 81.643749688046654, 29.138750084986178 ], [ 81.635416354746411, 29.138750084986178 ], [ 81.635416354746411, 29.147083418285629 ], [ 81.627083021446168, 29.147083418285629 ], [ 81.627083021446168, 29.155416751585079 ], [ 81.593749688245182, 29.155416751585079 ], [ 81.593749688245182, 29.16375008488453 ], [ 81.58541635494494, 29.16375008488453 ], [ 81.58541635494494, 29.197083418082336 ], [ 81.577083021644697, 29.197083418082336 ], [ 81.577083021644697, 29.205416751381787 ], [ 81.560416355044211, 29.205416751381787 ], [ 81.560416355044211, 29.213750084681237 ], [ 81.543749688443711, 29.213750084681237 ] ] ] } },
{ "type": "Feature", "properties": { "pop_grid": 106525, "pop_own": 106990, "area_own": 37.9 }, "geometry": { "type": "Polygon", "coordinates": [ [ [ 81.610416354845682, 28.638750087019112 ], [ 81.610416354845682, 28.630416753719658 ], [ 81.58541635494494, 28.630416753719658 ], [ 81.58541635494494, 28.622083420420207 ], [ 81.577083021644697, 28.622083420420207 ], [ 81.577083021644697, 28.605416753821306 ], [ 81.568749688344454, 28.605416753821306 ], [ 81.568749688344454, 28.597083420521855 ], [ 81.58541635494494, 28.597083420521855 ], [ 81.58541635494494, 28.588750087222405 ], [ 81.593749688245182, 28.588750087222405 ], [ 81.593749688245182, 28.580416753922954 ], [ 81.60208302154544, 28.580416753922954 ], [ 81.60208302154544, 28.572083420623503 ], [ 81.610416354845682, 28.572083420623503 ], [ 81.610416354845682, 28.580416753922954 ], [ 81.627083021446168, 28.580416753922954 ], [ 81.627083021446168, 28.572083420623503 ], [ 81.635416354746411, 28.572083420623503 ], [ 81.635416354746411, 28.563750087324049 ], [ 81.643749688046654, 28.563750087324049 ], [ 81.643749688046654, 28.622083420420207 ], [ 81.635416354746411, 28.622083420420207 ], [ 81.635416354746411, 28.630416753719658 ], [ 81.627083021446168, 28.630416753719658 ], [ 81.627083021446168, 28.638750087019112 ], [ 81.610416354845682, 28.638750087019112 ] ] ] } },
{ "type": "Feature", "properties": { "pop_grid": 96259, "pop_own": 97588, "area_own": 36.3 }, "geometry": { "type": "Polygon", "coordinates": [ [ [ 83.610416346904628, 28.272083421843263 ], [ 83.610416346904628, 28.255416755244358 ], [ 83.618749680204871, 28.255416755244358 ], [ 83.618749680204871, 28.247083421944907 ], [ 83.643749680105614, 28.247083421944907 ], [ 83.643749680105614, 28.238750088645457 ], [ 83.6604163467061, 28.238750088645457 ], [ 83.6604163467061, 28.230416755346006 ], [ 83.668749680006343, 28.230416755346006 ], [ 83.668749680006343, 28.197083422148204 ], [ 83.693749679907086, 28.197083422148204 ], [ 83.693749679907086, 28.205416755447654 ], [ 83.702083013207329, 28.205416755447654 ], [ 83.702083013207329, 28.213750088747105 ], [ 83.710416346507571, 28.213750088747105 ], [ 83.710416346507571, 28.222083422046556 ], [ 83.718749679807814, 28.222083422046556 ], [ 83.718749679807814, 28.230416755346006 ], [ 83.727083013108057, 28.230416755346006 ], [ 83.727083013108057, 28.238750088645457 ], [ 83.677083013306586, 28.238750088645457 ], [ 83.677083013306586, 28.247083421944907 ], [ 83.668749680006343, 28.247083421944907 ], [ 83.668749680006343, 28.263750088543812 ], [ 83.652083013405857, 28.263750088543812 ], [ 83.652083013405857, 28.272083421843263 ], [ 83.610416346904628, 28.272083421843263 ] ] ] } },
{ "type": "Feature", "properties": { "pop_grid": 271786, "pop_own": 269734, "area_own": 64.3 }, "geometry": { "type": "Polygon", "coordinates": [ [ [ 83.960416345514943, 28.272083421843263 ], [ 83.960416345514943, 28.263750088543812 ], [ 83.968749678815186, 28.263750088543812 ], [ 83.968749678815186, 28.247083421944907 ], [ 83.977083012115429, 28.247083421944907 ], [ 83.977083012115429, 28.230416755346006 ], [ 83.968749678815186, 28.230416755346006 ], [ 83.968749678815186, 28.222083422046556 ], [ 83.9520830122147, 28.222083422046556 ], [ 83.9520830122147, 28.180416755549299 ], [ 83.977083012115429, 28.180416755549299 ], [ 83.977083012115429, 28.172083422249848 ], [ 84.002083012016172, 28.172083422249848 ], [ 84.002083012016172, 28.163750088950398 ], [ 84.027083011916901, 28.163750088950398 ], [ 84.027083011916901, 28.155416755650947 ], [ 84.035416345217158, 28.155416755650947 ], [ 84.035416345217158, 28.163750088950398 ], [ 84.043749678517401, 28.163750088950398 ], [ 84.043749678517401, 28.172083422249848 ], [ 84.052083011817643, 28.172083422249848 ], [ 84.052083011817643, 28.188750088848749 ], [ 84.043749678517401, 28.188750088848749 ], [ 84.043749678517401, 28.197083422148204 ], [ 84.035416345217158, 28.197083422148204 ], [ 84.035416345217158, 28.205416755447654 ], [ 84.027083011916901, 28.205416755447654 ], [ 84.027083011916901, 28.222083422046556 ], [ 84.010416345316415, 28.222083422046556 ], [ 84.010416345316415, 28.230416755346006 ], [ 84.002083012016172, 28.230416755346006 ], [ 84.002083012016172, 28.247083421944907 ], [ 83.993749678715929, 28.247083421944907 ], [ 83.993749678715929, 28.255416755244358 ], [ 83.985416345415672, 28.255416755244358 ], [ 83.985416345415672, 28.272083421843263 ], [ 83.960416345514943, 28.272083421843263 ] ] ] } },
{ "type": "Feature", "properties": { "pop_grid": 65207, "pop_own": 63522, "area_own": 18.3 }, "geometry": { "type": "Polygon", "coordinates": [ [ [ 81.618749688145925, 28.080416755955888 ], [ 81.618749688145925, 28.063750089356983 ], [ 81.610416354845682, 28.063750089356983 ], [ 81.610416354845682, 28.038750089458631 ], [ 81.60208302154544, 28.038750089458631 ], [ 81.60208302154544, 28.03041675615918 ], [ 81.593749688245182, 28.03041675615918 ], [ 81.593749688245182, 28.02208342285973 ], [ 81.610416354845682, 28.02208342285973 ], [ 81.610416354845682, 28.03041675615918 ], [ 81.618749688145925, 28.03041675615918 ], [ 81.618749688145925, 28.038750089458631 ], [ 81.643749688046654, 28.038750089458631 ], [ 81.643749688046654, 28.055416756057532 ], [ 81.652083021346911, 28.055416756057532 ], [ 81.652083021346911, 28.072083422656434 ], [ 81.643749688046654, 28.072083422656434 ], [ 81.643749688046654, 28.080416755955888 ], [ 81.618749688145925, 28.080416755955888 ] ] ] } },
{ "type": "Feature", "properties": { "pop_grid": 697533, "pop_own": 696888, "area_own": 170.0 }, "geometry": { "type": "Polygon", "coordinates": [ [ [ 85.302083006854488, 27.755416757277292 ], [ 85.302083006854488, 27.738750090678391 ], [ 85.293749673554245, 27.738750090678391 ], [ 85.293749673554245, 27.722083424079489 ], [ 85.285416340253988, 27.722083424079489 ], [ 85.285416340253988, 27.713750090780039 ], [ 85.277083006953745, 27.713750090780039 ], [ 85.277083006953745, 27.697083424181134 ], [ 85.268749673653502, 27.697083424181134 ], [ 85.268749673653502, 27.688750090881683 ], [ 85.285416340253988, 27.688750090881683 ], [ 85.285416340253988, 27.680416757582233 ], [ 85.293749673554245, 27.680416757582233 ], [ 85.293749673554245, 27.647083424384427 ], [ 85.302083006854488, 27.647083424384427 ], [ 85.302083006854488, 27.622083424486075 ], [ 85.310416340154731, 27.622083424486075 ], [ 85.310416340154731, 27.613750091186624 ], [ 85.318749673454974, 27.613750091186624 ], [ 85.318749673454974, 27.588750091288272 ], [ 85.335416340055474, 27.588750091288272 ], [ 85.335416340055474, 27.597083424587723 ], [ 85.343749673355717, 27.597083424587723 ], [ 85.343749673355717, 27.605416757887173 ], [ 85.35208300665596, 27.605416757887173 ], [ 85.35208300665596, 27.613750091186624 ], [ 85.360416339956203, 27.613750091186624 ], [ 85.360416339956203, 27.630416757785525 ], [ 85.368749673256445, 27.630416757785525 ], [ 85.368749673256445, 27.638750091084976 ], [ 85.393749673157188, 27.638750091084976 ], [ 85.393749673157188, 27.647083424384427 ], [ 85.402083006457431, 27.647083424384427 ], [ 85.402083006457431, 27.655416757683881 ], [ 85.452083006258903, 27.655416757683881 ], [ 85.452083006258903, 27.697083424181134 ], [ 85.435416339658417, 27.697083424181134 ], [ 85.435416339658417, 27.688750090881683 ], [ 85.410416339757674, 27.688750090881683 ], [ 85.410416339757674, 27.697083424181134 ], [ 85.402083006457431, 27.697083424181134 ], [ 85.402083006457431, 27.705416757480585 ], [ 85.393749673157188, 27.705416757480585 ], [ 85.393749673157188, 27.722083424079489 ], [ 85.385416339856945, 27.722083424079489 ], [ 85.385416339856945, 27.738750090678391 ], [ 85.35208300665596, 27.738750090678391 ], [ 85.35208300665596, 27.747083423977841 ], [ 85.335416340055474, 27.747083423977841 ], [ 85.335416340055474, 27.755416757277292 ], [ 85.302083006854488, 27.755416757277292 ] ] ] } },
{ "type": "Feature", "properties": { "pop_grid": 360747, "pop_own": 357688, "area_own": 95.7 }, "geometry": { "type": "Polygon", "coordinates": [ [ [ 85.618749672263817, 27.688750090881683 ], [ 85.618749672263817, 27.672083424282782 ], [ 85.610416338963574, 27.672083424282782 ], [ 85.610416338963574, 27.663750090983331 ], [ 85.602083005663332, 27.663750090983331 ], [ 85.602083005663332, 27.655416757683881 ], [ 85.593749672363089, 27.655416757683881 ], [ 85.593749672363089, 27.638750091084976 ], [ 85.585416339062832, 27.638750091084976 ], [ 85.585416339062832, 27.630416757785525 ], [ 85.568749672462346, 27.630416757785525 ], [ 85.568749672462346, 27.638750091084976 ], [ 85.543749672561603, 27.638750091084976 ], [ 85.543749672561603, 27.647083424384427 ], [ 85.53541633926136, 27.647083424384427 ], [ 85.53541633926136, 27.655416757683881 ], [ 85.527083005961117, 27.655416757683881 ], [ 85.527083005961117, 27.663750090983331 ], [ 85.510416339360631, 27.663750090983331 ], [ 85.510416339360631, 27.655416757683881 ], [ 85.502083006060374, 27.655416757683881 ], [ 85.502083006060374, 27.647083424384427 ], [ 85.477083006159646, 27.647083424384427 ], [ 85.477083006159646, 27.622083424486075 ], [ 85.485416339459888, 27.622083424486075 ], [ 85.485416339459888, 27.605416757887173 ], [ 85.502083006060374, 27.605416757887173 ], [ 85.502083006060374, 27.613750091186624 ], [ 85.53541633926136, 27.613750091186624 ], [ 85.53541633926136, 27.605416757887173 ], [ 85.543749672561603, 27.605416757887173 ], [ 85.543749672561603, 27.580416757988822 ], [ 85.560416339162103, 27.580416757988822 ], [ 85.560416339162103, 27.588750091288272 ], [ 85.577083005762589, 27.588750091288272 ], [ 85.577083005762589, 27.580416757988822 ], [ 85.602083005663332, 27.580416757988822 ], [ 85.602083005663332, 27.588750091288272 ], [ 85.610416338963574, 27.588750091288272 ], [ 85.610416338963574, 27.597083424587723 ], [ 85.62708300556406, 27.597083424587723 ], [ 85.62708300556406, 27.622083424486075 ], [ 85.635416338864303, 27.622083424486075 ], [ 85.635416338864303, 27.655416757683881 ], [ 85.64374967216456, 27.655416757683881 ], [ 85.64374967216456, 27.663750090983331 ], [ 85.652083005464803, 27.663750090983331 ], [ 85.652083005464803, 27.672083424282782 ], [ 85.635416338864303, 27.672083424282782 ], [ 85.635416338864303, 27.680416757582233 ], [ 85.62708300556406, 27.680416757582233 ], [ 85.62708300556406, 27.688750090881683 ], [ 85.618749672263817, 27.688750090881683 ] ] ] } },
{ "type": "Feature", "properties": { "pop_grid": 113444, "pop_own": 109112, "area_own": 22.1 }, "geometry": { "type": "Polygon", "coordinates": [ [ [ 83.5520830138029, 27.530416758192114 ], [ 83.5520830138029, 27.522083424892664 ], [ 83.527083013902171, 27.522083424892664 ], [ 83.527083013902171, 27.513750091593209 ], [ 83.518749680601928, 27.513750091593209 ], [ 83.518749680601928, 27.505416758293759 ], [ 83.5687496804034, 27.505416758293759 ], [ 83.5687496804034, 27.497083424994308 ], [ 83.585416347003886, 27.497083424994308 ], [ 83.585416347003886, 27.488750091694858 ], [ 83.593749680304128, 27.488750091694858 ], [ 83.593749680304128, 27.497083424994308 ], [ 83.602083013604386, 27.497083424994308 ], [ 83.602083013604386, 27.522083424892664 ], [ 83.593749680304128, 27.522083424892664 ], [ 83.593749680304128, 27.530416758192114 ], [ 83.5520830138029, 27.530416758192114 ] ] ] } },
{ "type": "Feature", "properties": { "pop_grid": 62029, "pop_own": 60531, "area_own": 35.7 }, "geometry": { "type": "Polygon", "coordinates": [ [ [ 86.668749668094762, 27.463750091796506 ], [ 86.668749668094762, 27.455416758497051 ], [ 86.660416334794519, 27.455416758497051 ], [ 86.660416334794519, 27.447083425197601 ], [ 86.627083001593533, 27.447083425197601 ], [ 86.627083001593533, 27.4304167585987 ], [ 86.63541633489379, 27.4304167585987 ], [ 86.63541633489379, 27.422083425299249 ], [ 86.643749668194033, 27.422083425299249 ], [ 86.643749668194033, 27.397083425400893 ], [ 86.652083001494276, 27.397083425400893 ], [ 86.652083001494276, 27.380416758801992 ], [ 86.668749668094762, 27.380416758801992 ], [ 86.668749668094762, 27.397083425400893 ], [ 86.677083001395005, 27.397083425400893 ], [ 86.677083001395005, 27.422083425299249 ], [ 86.685416334695262, 27.422083425299249 ], [ 86.685416334695262, 27.4304167585987 ], [ 86.693749667995505, 27.4304167585987 ], [ 86.693749667995505, 27.447083425197601 ], [ 86.702083001295748, 27.447083425197601 ], [ 86.702083001295748, 27.463750091796506 ], [ 86.668749668094762, 27.463750091796506 ] ] ] } },
{ "type": "Feature", "properties": { "pop_grid": 56778, "pop_own": 55595, "area_own": 27.4 }, "geometry": { "type": "Polygon", "coordinates": [ [ [ 85.018749674646131, 27.43875009189815 ], [ 85.018749674646131, 27.4304167585987 ], [ 85.010416341345888, 27.4304167585987 ], [ 85.010416341345888, 27.405416758700348 ], [ 85.018749674646131, 27.405416758700348 ], [ 85.018749674646131, 27.397083425400893 ], [ 85.027083007946374, 27.397083425400893 ], [ 85.027083007946374, 27.388750092101443 ], [ 85.068749674447602, 27.388750092101443 ], [ 85.068749674447602, 27.380416758801992 ], [ 85.085416341048102, 27.380416758801992 ], [ 85.085416341048102, 27.405416758700348 ], [ 85.060416341147359, 27.405416758700348 ], [ 85.060416341147359, 27.413750091999798 ], [ 85.052083007847116, 27.413750091999798 ], [ 85.052083007847116, 27.4304167585987 ], [ 85.043749674546874, 27.4304167585987 ], [ 85.043749674546874, 27.43875009189815 ], [ 85.018749674646131, 27.43875009189815 ] ] ] } },
{ "type": "Feature", "properties": { "pop_grid": 90753, "pop_own": 81767, "area_own": 10.7 }, "geometry": { "type": "Polygon", "coordinates": [ [ [ 86.018749670675604, 26.688750094947551 ], [ 86.018749670675604, 26.6804167616481 ], [ 86.010416337375361, 26.6804167616481 ], [ 86.010416337375361, 26.67208342834865 ], [ 85.993749670774875, 26.67208342834865 ], [ 85.993749670774875, 26.655416761749748 ], [ 86.027083003975861, 26.655416761749748 ], [ 86.027083003975861, 26.663750095049199 ], [ 86.035416337276104, 26.663750095049199 ], [ 86.035416337276104, 26.688750094947551 ], [ 86.018749670675604, 26.688750094947551 ] ] ] } },
{ "type": "Feature", "properties": { "pop_grid": 165805, "pop_own": 161060, "area_own": 49.8 }, "geometry": { "type": "Polygon", "coordinates": [ [ [ 87.277082999012691, 26.513750095659077 ], [ 87.277082999012691, 26.505416762359626 ], [ 87.268749665712448, 26.505416762359626 ], [ 87.268749665712448, 26.497083429060176 ], [ 87.260416332412206, 26.497083429060176 ], [ 87.260416332412206, 26.480416762461275 ], [ 87.252082999111963, 26.480416762461275 ], [ 87.252082999111963, 26.413750096065662 ], [ 87.260416332412206, 26.413750096065662 ], [ 87.260416332412206, 26.405416762766215 ], [ 87.268749665712448, 26.405416762766215 ], [ 87.268749665712448, 26.38875009616731 ], [ 87.277082999012691, 26.38875009616731 ], [ 87.277082999012691, 26.397083429466761 ], [ 87.285416332312934, 26.397083429466761 ], [ 87.285416332312934, 26.405416762766215 ], [ 87.293749665613191, 26.405416762766215 ], [ 87.293749665613191, 26.430416762664567 ], [ 87.302082998913434, 26.430416762664567 ], [ 87.302082998913434, 26.46375009586237 ], [ 87.293749665613191, 26.46375009586237 ], [ 87.293749665613191, 26.488750095760725 ], [ 87.302082998913434, 26.488750095760725 ], [ 87.302082998913434, 26.497083429060176 ], [ 87.293749665613191, 26.497083429060176 ], [ 87.293749665613191, 26.513750095659077 ], [ 87.277082999012691, 26.513750095659077 ] ] ] } }
]
}
