{
"type": "FeatureCollection",
"name": "nepal_outline",
"crs": { "type": "name", "properties": { "name": "urn:ogc:def:crs:OGC:1.3:CRS84" } },
"features": [
{ "type": "Feature", "properties": { }, "geometry": { "type": "Polygon", "coordinates": [ [ [ 81.617818382000166, 30.445826564000072 ], [ 81.672214781000093, 30.427522348000139 ], [ 81.694717181000158, 30.423723979000158 ], [ 81.714256030000058, 30.411715278000145 ], [ 81.726726628000165, 30.411240507000059 ], [ 81.73158365200004, 30.398205061999988 ], [ 81.751013531000183, 30.388694936000036 ], [ 81.773941199000092, 30.384271631999979 ], [ 81.790624052999988, 30.388907755000162 ], [ 81.808882753000148, 30.387183440000058 ], [ 81.826273405000165, 30.374977539000099 ], [ 81.849773822000145, 30.373054198000034 ], [ 81.853767647000097, 30.379275169000039 ], [ 81.867581842000106, 30.377242381000087 ], [ 81.88204880100011, 30.360716219000153 ], [ 81.91438111400015, 30.349903474000143 ], [ 81.939380150000034, 30.347475517000078 ], [ 81.949218940000151, 30.358867715000144 ], [ 81.96209170200018, 30.350704491000045 ], [ 81.95655584300016, 30.341167245000179 ], [ 81.982274846000166, 30.329292315000146 ], [ 81.988312435000125, 30.320717590000072 ], [ 81.998026972, 30.320600997000099 ], [ 82.00525686900005, 30.328937258000167 ], [ 82.012040556000102, 30.329094657000155 ], [ 82.011039815000117, 30.341760823000072 ], [ 82.016187120000154, 30.344073120000189 ], [ 82.030864416000043, 30.337458779000144 ], [ 82.041104061000055, 30.34087317400008 ], [ 82.055889690000129, 30.33250968599998 ], [ 82.065811549000159, 30.355276378000099 ], [ 82.073453615000062, 30.358682297000087 ], [ 82.085227294000163, 30.359090187000049 ], [ 82.094329914000127, 30.349883132000059 ], [ 82.105240859000048, 30.349214049000011 ], [ 82.128174774000058, 30.302090525000096 ], [ 82.116287948000092, 30.294139282000117 ], [ 82.116275176000102, 30.286013984000135 ], [ 82.109311504000175, 30.277111091000108 ], [ 82.116104040000153, 30.272216031000085 ], [ 82.118028170000173, 30.258760952000159 ], [ 82.107269980000183, 30.255005017000144 ], [ 82.104965327000173, 30.244228872000178 ], [ 82.098298721000162, 30.239134062000176 ], [ 82.109271600000056, 30.225932159000024 ], [ 82.127508975000126, 30.225429170000041 ], [ 82.139007613000103, 30.198838034000062 ], [ 82.158635543000173, 30.189216800000167 ], [ 82.184365157000059, 30.190748235000171 ], [ 82.186398801000109, 30.17284857400017 ], [ 82.181947094000122, 30.16080088800004 ], [ 82.205445693000115, 30.153559927000174 ], [ 82.197457826000061, 30.142573587000129 ], [ 82.198730156000181, 30.136202329000184 ], [ 82.186851277000073, 30.13369651000005 ], [ 82.176493313000151, 30.121884524999984 ], [ 82.170711171000107, 30.121913622000193 ], [ 82.171480966000104, 30.117565481000042 ], [ 82.186442791000047, 30.110870774000091 ], [ 82.179327630000103, 30.102299596000023 ], [ 82.181642684000167, 30.096207828000104 ], [ 82.176987846000145, 30.08887051 ], [ 82.165772914000172, 30.081354606000048 ], [ 82.171797098000184, 30.065151407000087 ], [ 82.188363167000148, 30.069691295000041 ], [ 82.231116826000061, 30.064798654000128 ], [ 82.246610051000062, 30.075134857000137 ], [ 82.265425041000185, 30.062132050000116 ], [ 82.281208393000156, 30.061090702000115 ], [ 82.285130760000072, 30.047176192000052 ], [ 82.298400188000187, 30.037826646999974 ], [ 82.315576341000167, 30.040271992999976 ], [ 82.319858068000144, 30.049436949000153 ], [ 82.334011364000048, 30.046842783000102 ], [ 82.343507763000162, 30.036755749 ], [ 82.344675639000172, 30.028807888000131 ], [ 82.359395640000173, 30.021575416000132 ], [ 82.36289638500017, 30.010369396000044 ], [ 82.372586576000174, 30.015570557000046 ], [ 82.377745957000116, 30.011116740000091 ], [ 82.37584515900005, 30.02635672100007 ], [ 82.382043731000124, 30.027063000000169 ], [ 82.387100860000089, 30.020375141000045 ], [ 82.395386901000109, 30.023929623000186 ], [ 82.402417877000119, 30.014500490000103 ], [ 82.420833063000032, 30.003965447000155 ], [ 82.432036643000117, 29.988946590000126 ], [ 82.456180765000113, 29.976849094000158 ], [ 82.463102334000041, 29.981995281000081 ], [ 82.476047855000104, 29.973581332000151 ], [ 82.473757465000119, 29.965202081000086 ], [ 82.499140188000183, 29.945963336000148 ], [ 82.514034396000113, 29.952112740000189 ], [ 82.52961830900017, 29.971099829000082 ], [ 82.54924521900017, 29.963160689000119 ], [ 82.562978999000165, 29.955152088000148 ], [ 82.566559660000053, 29.932405083000162 ], [ 82.584662471000115, 29.921236910000118 ], [ 82.602278592000118, 29.888997571000061 ], [ 82.642183694000153, 29.870463798000173 ], [ 82.640409779000038, 29.862868043000105 ], [ 82.631347771000037, 29.856707852000113 ], [ 82.631618506000109, 29.849566211000138 ], [ 82.620212536000167, 29.844979900000169 ], [ 82.62086679000015, 29.83723100900005 ], [ 82.639602483000033, 29.833819243000164 ], [ 82.675948691000087, 29.843247928000039 ], [ 82.697092364000127, 29.855289257999971 ], [ 82.710480745000041, 29.838767947000179 ], [ 82.726499938000018, 29.83525408800017 ], [ 82.737029195000048, 29.81348134600006 ], [ 82.710150797000097, 29.79272805100004 ], [ 82.694006726000055, 29.791117138000061 ], [ 82.695971839000038, 29.781585495000058 ], [ 82.68639163000006, 29.773416858000132 ], [ 82.689976037000065, 29.763075878000052 ], [ 82.697615461000112, 29.761611009000092 ], [ 82.71095561400017, 29.768888662000109 ], [ 82.718903082000111, 29.766083611000113 ], [ 82.723706462, 29.770471526000165 ], [ 82.752099245000124, 29.765519180000069 ], [ 82.76662998200004, 29.742401 ], [ 82.762823922000109, 29.731129553000073 ], [ 82.797523679000108, 29.718988665000097 ], [ 82.817787243000055, 29.721083662000126 ], [ 82.821279854000068, 29.713771460000146 ], [ 82.814884914000118, 29.704697518000046 ], [ 82.826345092000167, 29.68983533100004 ], [ 82.83853420100013, 29.691740281000079 ], [ 82.860579776000179, 29.684520612000028 ], [ 82.886087999000154, 29.69270350100004 ], [ 82.890833986000132, 29.701363394000055 ], [ 82.908196825000118, 29.70034838700019 ], [ 82.91493371700011, 29.706371495000099 ], [ 82.926655924000045, 29.70058271900001 ], [ 82.935365134000165, 29.70541865500013 ], [ 82.948336151000035, 29.69153659 ], [ 82.940841787000068, 29.674078721000171 ], [ 82.955599135, 29.662603021000109 ], [ 82.984920327000111, 29.66840175700014 ], [ 82.991555589000029, 29.663323522000155 ], [ 83.000431415000094, 29.664534300000128 ], [ 83.008494962000157, 29.672520435000024 ], [ 83.013974281000117, 29.660391025000081 ], [ 83.020950884000115, 29.657700073000171 ], [ 83.020946282000068, 29.650633792 ], [ 83.03337088800015, 29.654169035000052 ], [ 83.043264276000173, 29.63079761400013 ], [ 83.06535542600011, 29.626029220000135 ], [ 83.069250543000067, 29.609884907000037 ], [ 83.085590526000146, 29.602711082000042 ], [ 83.092201570000043, 29.605372815000123 ], [ 83.090061850000097, 29.611953170000049 ], [ 83.105312014000162, 29.618349631 ], [ 83.116399544000046, 29.616387240000108 ], [ 83.120247892000179, 29.628538297000148 ], [ 83.131427903000144, 29.617844281000146 ], [ 83.14193338900003, 29.624798677000172 ], [ 83.149965815000087, 29.623794837000048 ], [ 83.165044239000167, 29.615935432000185 ], [ 83.158972599000151, 29.596355465000102 ], [ 83.179897882000034, 29.592947491000189 ], [ 83.188321266000116, 29.597426834000032 ], [ 83.187602889000061, 29.608244382000123 ], [ 83.196722899000065, 29.611096701000122 ], [ 83.198752600000034, 29.606201000000169 ], [ 83.218023866000124, 29.605443066000134 ], [ 83.214395325000169, 29.589236075000088 ], [ 83.231919115000039, 29.577819601000158 ], [ 83.261087337999982, 29.577563281000039 ], [ 83.269353095000099, 29.568255340000064 ], [ 83.277821243000176, 29.568906227000184 ], [ 83.283908666000173, 29.562835637999967 ], [ 83.282036594000147, 29.557529475000138 ], [ 83.255274379000184, 29.556741556000077 ], [ 83.25873090400006, 29.551013768000075 ], [ 83.255787738000095, 29.539227876000155 ], [ 83.268683157000112, 29.522082797000053 ], [ 83.267350144000034, 29.507407574000069 ], [ 83.281993835000094, 29.498686240000154 ], [ 83.293377855000188, 29.50435902300012 ], [ 83.302238124000098, 29.499669100000119 ], [ 83.31566772900004, 29.508903333999967 ], [ 83.347052431000179, 29.492534481000177 ], [ 83.342266892000055, 29.465797941000119 ], [ 83.35370789100017, 29.451370774000168 ], [ 83.366122170000153, 29.450016161000121 ], [ 83.364327566000156, 29.439717523000127 ], [ 83.371331662000046, 29.428511047000143 ], [ 83.381047706000174, 29.42314757600019 ], [ 83.41317174600016, 29.421759159000146 ], [ 83.41588030700018, 29.410371192000184 ], [ 83.42612052000004, 29.402401344000111 ], [ 83.420364408000012, 29.397429836000185 ], [ 83.422581063000052, 29.384636431000104 ], [ 83.411718565000115, 29.380264909000061 ], [ 83.415382158000114, 29.37602236000015 ], [ 83.413094098000158, 29.366861170000107 ], [ 83.417231657000116, 29.364075555999989 ], [ 83.41632224600005, 29.356756531000087 ], [ 83.422950726000181, 29.35658684100008 ], [ 83.429028173, 29.349618207999981 ], [ 83.437871276000124, 29.350104679000026 ], [ 83.444807599000171, 29.340387002000057 ], [ 83.442342783000186, 29.335682709000082 ], [ 83.446453551000104, 29.329072698000061 ], [ 83.438096166000093, 29.309093159000099 ], [ 83.444146526000111, 29.306461311000135 ], [ 83.443457632000104, 29.299898968999969 ], [ 83.451316367000118, 29.297511128000053 ], [ 83.465135848000045, 29.27452766000016 ], [ 83.487131186000056, 29.280142558000193 ], [ 83.493377722000162, 29.27377824600012 ], [ 83.491461108000181, 29.264804606000155 ], [ 83.504097902000012, 29.255551851000121 ], [ 83.514722518000156, 29.255807373000096 ], [ 83.517682314000126, 29.240562765000163 ], [ 83.522700931000145, 29.238243872000055 ], [ 83.515050370000097, 29.227993506000132 ], [ 83.518802811000171, 29.218474381000078 ], [ 83.530362228000115, 29.213356666000038 ], [ 83.539019217000089, 29.202667541000153 ], [ 83.552290099000174, 29.200111739000079 ], [ 83.563103571000113, 29.206052993000128 ], [ 83.57196275900003, 29.202501775000087 ], [ 83.569854423000038, 29.190451663000147 ], [ 83.575486271000102, 29.188143966999974 ], [ 83.578443817000164, 29.178780753000126 ], [ 83.590072276000171, 29.174165428000094 ], [ 83.610105803000124, 29.180742084000144 ], [ 83.614621264000107, 29.171326211000064 ], [ 83.630732517000069, 29.159675546000017 ], [ 83.640487988000132, 29.160656301000074 ], [ 83.663153454000053, 29.18284406500004 ], [ 83.658015239000065, 29.187437308000028 ], [ 83.655788567000059, 29.203941377000035 ], [ 83.68412441300012, 29.213081622000175 ], [ 83.711162522000052, 29.244551602000058 ], [ 83.721738593000168, 29.241535552000073 ], [ 83.740526654000121, 29.24542837600012 ], [ 83.761979741000118, 29.239952981000158 ], [ 83.771020622000037, 29.246790126000178 ], [ 83.781272724000075, 29.24436208000003 ], [ 83.797185761000037, 29.250024257000177 ], [ 83.802180389000114, 29.256327508000084 ], [ 83.794400991000032, 29.277377505000118 ], [ 83.807746754000163, 29.285842819000152 ], [ 83.812516137000159, 29.301937415000054 ], [ 83.847976305000145, 29.297572590000129 ], [ 83.856594501000188, 29.309837414000128 ], [ 83.887289937000105, 29.320101102000081 ], [ 83.897920339000166, 29.318794523000065 ], [ 83.904664028000127, 29.32571106000006 ], [ 83.942848814000115, 29.316234004000023 ], [ 83.962554322000187, 29.331282134000048 ], [ 83.975738595000109, 29.328616661000069 ], [ 84.000848433000101, 29.311955863000151 ], [ 83.999139539000112, 29.306280482000147 ], [ 83.988911814, 29.302582840000127 ], [ 83.989844969000046, 29.296348413000032 ], [ 84.008714523000094, 29.29494096500008 ], [ 84.026290475, 29.285575130000097 ], [ 84.030035835000092, 29.293205791000048 ], [ 84.043751468000153, 29.300773683000045 ], [ 84.068666039, 29.285266875000104 ], [ 84.087675719000117, 29.294562755000072 ], [ 84.12012710099998, 29.279628225000181 ], [ 84.117419095000116, 29.276757884000119 ], [ 84.121546181000156, 29.270307893000165 ], [ 84.112262621000127, 29.262991821000185 ], [ 84.112217176, 29.248096797000017 ], [ 84.116222152000091, 29.244145201000094 ], [ 84.141067907000149, 29.236171725000133 ], [ 84.156294004000074, 29.241647475000036 ], [ 84.178797765000184, 29.23767521100018 ], [ 84.19252104900005, 29.244154110000068 ], [ 84.200553802000059, 29.240332269000078 ], [ 84.199616090000063, 29.213906458000054 ], [ 84.188204235000057, 29.205743564000045 ], [ 84.177410076, 29.206763720000026 ], [ 84.164220893000049, 29.194824593000135 ], [ 84.166700210000101, 29.19028937500002 ], [ 84.16216907200004, 29.185229569000057 ], [ 84.169141682000145, 29.172108331000118 ], [ 84.16582352000006, 29.164103868000154 ], [ 84.173276743000088, 29.149779213000045 ], [ 84.174688402000072, 29.130841002000068 ], [ 84.200846217000162, 29.123952728000177 ], [ 84.201594236000119, 29.103757677000146 ], [ 84.186017612000057, 29.080722571000081 ], [ 84.189565535000099, 29.046919883000101 ], [ 84.221451967000121, 29.053448672 ], [ 84.242170809000072, 29.044243091000169 ], [ 84.247747296000057, 29.037238134000063 ], [ 84.247747829, 29.01263940400014 ], [ 84.23816174100017, 28.987672967000037 ], [ 84.24168826600004, 28.976101085000039 ], [ 84.231357452, 28.95965166700006 ], [ 84.220362507000061, 28.915613511000174 ], [ 84.225648756, 28.894210305000115 ], [ 84.253706630000181, 28.890221639000117 ], [ 84.2654450120001, 28.897742585000117 ], [ 84.287699842000109, 28.876916047000179 ], [ 84.31550275800015, 28.869772666000074 ], [ 84.323502148000159, 28.862652325000056 ], [ 84.343021115, 28.872931339 ], [ 84.356892104999986, 28.859339937000072 ], [ 84.375139794000177, 28.864377347000129 ], [ 84.40883224900017, 28.853539277999971 ], [ 84.407559026000115, 28.842927100000168 ], [ 84.399226706000093, 28.837278538000191 ], [ 84.400506874000143, 28.830213954000044 ], [ 84.418771267000068, 28.831545827000014 ], [ 84.435206853000182, 28.820857516000046 ], [ 84.429503909000118, 28.813280298000166 ], [ 84.431940776000033, 28.80142248300001 ], [ 84.445178424, 28.793323820000069 ], [ 84.445881924000162, 28.783197255000175 ], [ 84.436427741000102, 28.769435662000092 ], [ 84.451792905000104, 28.764749348000123 ], [ 84.460294994000037, 28.751277907000087 ], [ 84.480188039000097, 28.747115746000077 ], [ 84.491763629000047, 28.734705883000061 ], [ 84.514608825000096, 28.748544195000193 ], [ 84.524784662000116, 28.742170573000067 ], [ 84.556596926000054, 28.752138329000047 ], [ 84.557134405000056, 28.746934061000047 ], [ 84.571562664000055, 28.735147941000037 ], [ 84.626223429000163, 28.736451063000061 ], [ 84.643431429000032, 28.725212878000036 ], [ 84.650628638, 28.714397796000128 ], [ 84.650515293000126, 28.702381387 ], [ 84.666390843000102, 28.694216962000155 ], [ 84.668229833000169, 28.683375291000061 ], [ 84.704838074, 28.671068970000135 ], [ 84.697116493000181, 28.653463689000148 ], [ 84.70164920700006, 28.647363007000024 ], [ 84.694668631000184, 28.636410758000068 ], [ 84.713675535, 28.632948396000131 ], [ 84.725071093000167, 28.620595774000151 ], [ 84.736679370000104, 28.616858374 ], [ 84.746767176000048, 28.618280792000121 ], [ 84.780575908000174, 28.609466231000056 ], [ 84.856966416000091, 28.570572378000122 ], [ 84.866940215000113, 28.581603174000122 ], [ 84.885946401000126, 28.582626345000165 ], [ 84.90085379900006, 28.593243325000174 ], [ 84.906855859000189, 28.588136767000094 ], [ 84.919558253000105, 28.595224717000178 ], [ 84.944779140000094, 28.594785191000028 ], [ 84.948765869000169, 28.580146525000146 ], [ 84.983286194000129, 28.591369164000128 ], [ 84.992728308000096, 28.599775316000034 ], [ 84.985967344000073, 28.605076094000026 ], [ 84.988715304000095, 28.612870122000061 ], [ 85.008800706000159, 28.637052840000081 ], [ 85.01700680600004, 28.639416455000173 ], [ 85.030753910000101, 28.656061497000167 ], [ 85.04022072600003, 28.657962926000039 ], [ 85.041067442000099, 28.668402682000135 ], [ 85.051920829000039, 28.670012850000148 ], [ 85.053591126000128, 28.680376251000098 ], [ 85.05847461400009, 28.682393091000165 ], [ 85.08381848300013, 28.670922947 ], [ 85.114788051000176, 28.686689307000165 ], [ 85.132290392000129, 28.675888092000093 ], [ 85.134927000000175, 28.666534173000173 ], [ 85.145545330000175, 28.660954364000077 ], [ 85.157066133000114, 28.642935011000134 ], [ 85.178575088000116, 28.645036821000133 ], [ 85.188307936, 28.641202838000083 ], [ 85.184693933000062, 28.632227526000179 ], [ 85.197535207000101, 28.627136336999968 ], [ 85.197213392000037, 28.620800717000179 ], [ 85.188846240000146, 28.604962691000139 ], [ 85.173545639999986, 28.597410796000133 ], [ 85.181226090000109, 28.587421271000039 ], [ 85.181413503000044, 28.578922356000191 ], [ 85.191439325000033, 28.568981806000124 ], [ 85.184609470000055, 28.561345065000069 ], [ 85.188828036000075, 28.547216727999967 ], [ 85.186756978000119, 28.53423517900012 ], [ 85.166005922000181, 28.532048702000168 ], [ 85.165984289999983, 28.521268740000153 ], [ 85.156882143000132, 28.509485835000135 ], [ 85.152773739000054, 28.490504855000154 ], [ 85.144390342000179, 28.485561156000131 ], [ 85.118383251000125, 28.485515896000095 ], [ 85.099391171000036, 28.456826098000192 ], [ 85.102694117000169, 28.447787597000115 ], [ 85.114182375000155, 28.443144153000162 ], [ 85.115712433000112, 28.408780472000046 ], [ 85.126517793000119, 28.392361828000105 ], [ 85.12176061200006, 28.372638089000191 ], [ 85.115073376000055, 28.367105286000083 ], [ 85.10783742000018, 28.346528143000057 ], [ 85.120655200000044, 28.33569477900005 ], [ 85.128534849000175, 28.337998458000129 ], [ 85.140263516000118, 28.330395846000101 ], [ 85.166710655000145, 28.33155051100016 ], [ 85.181747752000092, 28.324216120000017 ], [ 85.202335834, 28.340593689 ], [ 85.241338149000057, 28.317752112000051 ], [ 85.254659580000123, 28.294395947000169 ], [ 85.270355738000148, 28.297325393000051 ], [ 85.272792564000156, 28.287715739000078 ], [ 85.303453375000174, 28.289840205000132 ], [ 85.340254792000167, 28.303893519000098 ], [ 85.348078988000054, 28.301637422000056 ], [ 85.348146273000054, 28.288427300000023 ], [ 85.370060669000111, 28.285698616000047 ], [ 85.377523711000151, 28.278509019000182 ], [ 85.411920035000037, 28.3082870020001 ], [ 85.41526923300006, 28.327060121000045 ], [ 85.457885403000034, 28.336953540000025 ], [ 85.487259504000122, 28.331121395000025 ], [ 85.506409957000074, 28.333938167000042 ], [ 85.561635786000068, 28.309755443000029 ], [ 85.591833985000108, 28.308597393000127 ], [ 85.600481997000145, 28.304287747000046 ], [ 85.596517706000157, 28.298957469000072 ], [ 85.598854968000069, 28.279187723000177 ], [ 85.608570558000167, 28.256806657000027 ], [ 85.63531512000003, 28.273858911000161 ], [ 85.644993726000052, 28.289727282000115 ], [ 85.660606480000126, 28.302896875000101 ], [ 85.653642451000053, 28.317400261000159 ], [ 85.664277901000048, 28.331670729000166 ], [ 85.665631039000061, 28.347961226000052 ], [ 85.676082403000123, 28.350627798000062 ], [ 85.686075659000039, 28.346880687000123 ], [ 85.683801903000017, 28.382402139000192 ], [ 85.711733358000117, 28.386063933000116 ], [ 85.71763781400017, 28.375497364000069 ], [ 85.724205805000167, 28.373294243000089 ], [ 85.718786223000052, 28.367268 ], [ 85.719817204000037, 28.359400664000134 ], [ 85.732148775000098, 28.339277316999983 ], [ 85.727416517000051, 28.328782426000032 ], [ 85.737126886000112, 28.319195461000049 ], [ 85.732940079, 28.291221274000122 ], [ 85.742823773000168, 28.271655832000079 ], [ 85.748741001000155, 28.238094513000078 ], [ 85.773933927000087, 28.218034075000105 ], [ 85.776259148000179, 28.208530842000073 ], [ 85.799895166000056, 28.196344482000029 ], [ 85.815572429000042, 28.203293702 ], [ 85.817944204000071, 28.19388021300017 ], [ 85.828821340000161, 28.184991079000099 ], [ 85.848401201000058, 28.184099196000091 ], [ 85.851188782000065, 28.16712020500006 ], [ 85.871834503000059, 28.144372236000038 ], [ 85.870010964000073, 28.12369561700018 ], [ 85.897932788, 28.109002369000166 ], [ 85.903194042000109, 28.089158864000126 ], [ 85.896237864999989, 28.074234450000176 ], [ 85.900784977000171, 28.053818794000108 ], [ 85.914784913000176, 28.049303261000148 ], [ 85.935719529000039, 28.024092388000099 ], [ 85.977022691000116, 27.996639704000074 ], [ 85.978184801000168, 27.987820762000126 ], [ 85.95965389800017, 27.967499995000026 ], [ 85.948647891000178, 27.940960605000043 ], [ 86.000510087000123, 27.911260931000129 ], [ 86.013643579000188, 27.915046390000043 ], [ 86.023077002000093, 27.907562789000167 ], [ 86.047263521000161, 27.906484568000053 ], [ 86.064703809000036, 27.899678050000148 ], [ 86.06930244400013, 27.905597417000081 ], [ 86.066385267999976, 27.911021444000085 ], [ 86.123865052000042, 27.927568001000054 ], [ 86.123547276000068, 27.941530875000183 ], [ 86.107023631000061, 27.95579787000014 ], [ 86.109351758000059, 27.961421409000138 ], [ 86.103468079000038, 27.984141902000033 ], [ 86.079271637000147, 28.020292428000118 ], [ 86.090355504000172, 28.033121670000014 ], [ 86.087393151000128, 28.049279673000171 ], [ 86.094736769000065, 28.061792626000113 ], [ 86.082662822000145, 28.090857498000162 ], [ 86.092015490000051, 28.097750802000121 ], [ 86.117733860999977, 28.091324340000028 ], [ 86.130080153000108, 28.100063971000111 ], [ 86.132240862000117, 28.116559848000122 ], [ 86.140375072999973, 28.117703018000043 ], [ 86.141897744000119, 28.12600555500012 ], [ 86.177986879000173, 28.143496209000148 ], [ 86.173735433000161, 28.168194049000135 ], [ 86.186608407000165, 28.174100567000153 ], [ 86.197190046, 28.156275353000183 ], [ 86.197072229000128, 28.138199592000035 ], [ 86.205434056, 28.133009895000043 ], [ 86.219725850000032, 28.111583194000104 ], [ 86.22240136500011, 28.095695724000052 ], [ 86.207626914000116, 28.094268895000027 ], [ 86.204059123000036, 28.083940502000189 ], [ 86.217459737000183, 28.040210023000043 ], [ 86.225028372000168, 28.031630363000033 ], [ 86.219872592000058, 28.010922304000189 ], [ 86.226643077000062, 27.980869357000074 ], [ 86.237280480000152, 27.973007750000193 ], [ 86.266291545000058, 27.980384931000117 ], [ 86.288662515000055, 27.978320835000034 ], [ 86.296449236000115, 27.972950767000157 ], [ 86.303933338000149, 27.955517705000148 ], [ 86.318653387000097, 27.947805598 ], [ 86.335216431000106, 27.965019367000082 ], [ 86.337509178000175, 27.949386675000028 ], [ 86.347827279000114, 27.937498922000088 ], [ 86.358170138000105, 27.941342268000085 ], [ 86.381199247000154, 27.937795066000035 ], [ 86.405291749000128, 27.916632763000109 ], [ 86.410638092000056, 27.90650994900011 ], [ 86.429101340000045, 27.909480022000082 ], [ 86.442339248000053, 27.905649167000149 ], [ 86.469764258000112, 27.929970319 ], [ 86.466324010000051, 27.941255753000121 ], [ 86.469266198000128, 27.94612681000001 ], [ 86.497595458000035, 27.957148288000155 ], [ 86.516003850000061, 27.956952519000026 ], [ 86.512109038000062, 27.96819238400019 ], [ 86.520032165000032, 27.974295987000062 ], [ 86.512719074000074, 27.984684554000125 ], [ 86.521040481000171, 28.019277566000142 ], [ 86.531338316000188, 28.027087623 ], [ 86.535548970000036, 28.050107525999977 ], [ 86.548778338000091, 28.050686282000129 ], [ 86.565222742000174, 28.06891908800003 ], [ 86.558490108000171, 28.077800172000138 ], [ 86.566739192000057, 28.091773705000037 ], [ 86.561754161000124, 28.105080116000067 ], [ 86.574290071000178, 28.112986581000143 ], [ 86.60424561300016, 28.100069849000079 ], [ 86.607897944000115, 28.092087002000085 ], [ 86.602489328000047, 28.087493812 ], [ 86.608239217000175, 28.075943259000098 ], [ 86.634691793000059, 28.07065790900009 ], [ 86.657830623000166, 28.081028040000092 ], [ 86.663499602000172, 28.09791326800007 ], [ 86.688979740000036, 28.108592916000134 ], [ 86.738160503000131, 28.103709582000192 ], [ 86.748192390000156, 28.094886679000183 ], [ 86.750728567000124, 28.081273313 ], [ 86.764812996999979, 28.07455461100011 ], [ 86.75509842800011, 28.068118939000158 ], [ 86.746748448000062, 28.050492413000143 ], [ 86.752800013000069, 28.037860025000157 ], [ 86.773219882000035, 28.037996767999971 ], [ 86.789979068000093, 28.018861969000113 ], [ 86.80256117600004, 28.023544039000114 ], [ 86.835701574000097, 28.015276018000179 ], [ 86.847198331000186, 28.019772271000136 ], [ 86.851926209000055, 28.027635600000167 ], [ 86.867309118000151, 28.025189855 ], [ 86.8723888990001, 28.022083415000054 ], [ 86.872928231000117, 28.010437646000071 ], [ 86.889805708000097, 27.996899538999969 ], [ 86.925233080000169, 27.987815136000165 ], [ 86.932958986000131, 27.978016025000045 ], [ 86.934293131000118, 27.96194147600005 ], [ 86.982253689000174, 27.94950185600004 ], [ 87.015601237000169, 27.957665011000188 ], [ 87.024060810000151, 27.94996566500015 ], [ 87.03901415100006, 27.950361600000122 ], [ 87.053265225000018, 27.926558602999989 ], [ 87.078158594000115, 27.915633478000132 ], [ 87.077693148000151, 27.902811854000106 ], [ 87.088434870000071, 27.889543419000177 ], [ 87.088705312000059, 27.882580603000122 ], [ 87.107058776000031, 27.874901004000037 ], [ 87.108038953, 27.85426272300009 ], [ 87.115787522000119, 27.840301729000146 ], [ 87.126222488000053, 27.834160219000182 ], [ 87.140381123000111, 27.837090915000033 ], [ 87.156615735000116, 27.824445403000027 ], [ 87.171818510000037, 27.821076800000071 ], [ 87.21769912700006, 27.823557075000053 ], [ 87.225555689000146, 27.819681879000029 ], [ 87.238533764000067, 27.839440255000056 ], [ 87.260326759000122, 27.850909781000155 ], [ 87.303489847000094, 27.84341226600003 ], [ 87.304342051000106, 27.835452735000047 ], [ 87.317748220000055, 27.825709601000142 ], [ 87.337745811000104, 27.829887989000042 ], [ 87.357492089, 27.827796426000077 ], [ 87.373727041000052, 27.845277256000145 ], [ 87.402487053000016, 27.851879162000159 ], [ 87.418460080000102, 27.862471783000046 ], [ 87.425529682000104, 27.858761308000055 ], [ 87.431639218000043, 27.842369246000032 ], [ 87.408766237000179, 27.838781624000035 ], [ 87.403501791000167, 27.834041067000101 ], [ 87.449682220000113, 27.822283553000034 ], [ 87.489979797000046, 27.84644313400014 ], [ 87.535840065000059, 27.843123061000142 ], [ 87.547580160000052, 27.853182337000078 ], [ 87.552013788000068, 27.865135807 ], [ 87.562315893000061, 27.867011903000162 ], [ 87.578676003000112, 27.861969414000157 ], [ 87.586236239000186, 27.85281593000019 ], [ 87.589377872000171, 27.820361350000042 ], [ 87.601394346000177, 27.82107439400005 ], [ 87.611352114000056, 27.810548576000087 ], [ 87.616733458000169, 27.818883696000171 ], [ 87.631894707000072, 27.824751035000077 ], [ 87.635700099000132, 27.834353701000055 ], [ 87.664963725000064, 27.836404338000136 ], [ 87.669626333000053, 27.830046550000077 ], [ 87.662921017000144, 27.822581765000166 ], [ 87.665348224000184, 27.806847072000096 ], [ 87.698538309000185, 27.812156625 ], [ 87.725234989000171, 27.805270937000159 ], [ 87.736205430000041, 27.812989720000132 ], [ 87.733748350000155, 27.819089824000173 ], [ 87.743666847000043, 27.83516347800014 ], [ 87.753310319000036, 27.835894039000095 ], [ 87.766052384000091, 27.859501709000142 ], [ 87.778532723000069, 27.865872954000167 ], [ 87.775293534000184, 27.877927455000076 ], [ 87.78448205300009, 27.899348874000111 ], [ 87.803987518000042, 27.908908288000021 ], [ 87.813450033000038, 27.921441557000094 ], [ 87.824573361000091, 27.920152639000037 ], [ 87.824632318000056, 27.93662150200015 ], [ 87.831687743000032, 27.952849648000097 ], [ 87.846899730000075, 27.946315898000023 ], [ 87.856861202000061, 27.947948575000055 ], [ 87.859145247000129, 27.936647365000056 ], [ 87.853903941000056, 27.928720647000034 ], [ 87.865781836000053, 27.910760524000182 ], [ 87.87660257400006, 27.914768760000186 ], [ 87.899081041000045, 27.911138334000157 ], [ 87.907733393000058, 27.916893123000193 ], [ 87.93205819200017, 27.917872265000028 ], [ 87.9390272710001, 27.9107929 ], [ 87.955587403000038, 27.909043444000019 ], [ 87.966378579000093, 27.89316930300015 ], [ 87.984726741000145, 27.885928489000037 ], [ 88.002299581000159, 27.898083455000119 ], [ 88.021474430000183, 27.896595902000058 ], [ 88.029955216000189, 27.905877129000146 ], [ 88.053866698000149, 27.896816774000058 ], [ 88.064324037, 27.886311467000098 ], [ 88.0718908, 27.89371115400013 ], [ 88.084031611000114, 27.895475115000124 ], [ 88.095689926000091, 27.867181020000032 ], [ 88.112249549000069, 27.868433614000139 ], [ 88.126328442999977, 27.881692729000179 ], [ 88.134782278000046, 27.881700083000112 ], [ 88.16408698000015, 27.868391648 ], [ 88.17822499600004, 27.856694018000098 ], [ 88.195607286000097, 27.854527679000171 ], [ 88.201142059000063, 27.837447288000135 ], [ 88.194430227000169, 27.835705307000126 ], [ 88.187355534, 27.825328076000119 ], [ 88.173012525000161, 27.820462781000174 ], [ 88.185133758000063, 27.810588825000139 ], [ 88.186712970000144, 27.80140922400011 ], [ 88.197172811000087, 27.790813048000189 ], [ 88.181149275000166, 27.775876602000153 ], [ 88.183286924000186, 27.766272673000174 ], [ 88.176625989000172, 27.758341174000179 ], [ 88.178433976000122, 27.747023327000136 ], [ 88.156148450000046, 27.736533741000187 ], [ 88.155291353000109, 27.717412399000068 ], [ 88.147337999000172, 27.70296344500008 ], [ 88.154663040000059, 27.690661480000131 ], [ 88.148681922000094, 27.684008631999973 ], [ 88.144504423, 27.665616097000054 ], [ 88.11994655500007, 27.645557555999972 ], [ 88.113548755000068, 27.610606612000026 ], [ 88.089526950000163, 27.595101872000043 ], [ 88.081852386000037, 27.584984793000103 ], [ 88.075082899000108, 27.572049167000046 ], [ 88.080933191999975, 27.564824914000155 ], [ 88.06911276400001, 27.555815345000099 ], [ 88.068421023999974, 27.546392467000089 ], [ 88.058889168, 27.53508795700003 ], [ 88.067072757000062, 27.526305572000183 ], [ 88.061295032000146, 27.525298483000086 ], [ 88.057306734000178, 27.517894990000059 ], [ 88.061432714000148, 27.512099141000022 ], [ 88.043625551, 27.495969640000169 ], [ 88.043845265000073, 27.478483108000148 ], [ 88.066932958000166, 27.457881235000059 ], [ 88.064404201000116, 27.453769606000094 ], [ 88.072393310000052, 27.445268193000061 ], [ 88.067842197000175, 27.438313710999978 ], [ 88.080111936000094, 27.429810630000134 ], [ 88.050437079000119, 27.412911025000142 ], [ 88.041564419000167, 27.372012797000139 ], [ 88.049327344000062, 27.359365300000036 ], [ 88.057502936000105, 27.355630598000118 ], [ 88.066493187999981, 27.335902118000092 ], [ 88.052399670000057, 27.324498088000098 ], [ 88.041406651000102, 27.304335818000084 ], [ 88.044688920000169, 27.293698308999979 ], [ 88.031600675, 27.286210144000108 ], [ 88.030741417000172, 27.250004657000034 ], [ 88.024703385000066, 27.237229213999967 ], [ 88.019122703000164, 27.235862101000123 ], [ 88.018768449000163, 27.225021350000134 ], [ 88.012056849000146, 27.216004505000058 ], [ 88.015884207999989, 27.196140182000022 ], [ 88.012354615999982, 27.177529296999978 ], [ 88.019245506000118, 27.170988249000061 ], [ 88.01086415400016, 27.165758042000107 ], [ 88.007288411000104, 27.143252991999987 ], [ 87.991096685000173, 27.130767079000123 ], [ 87.987313639000149, 27.119304877000161 ], [ 87.99150411700009, 27.105408478000129 ], [ 88.003291740000122, 27.104404230000171 ], [ 88.015856246000169, 27.08838705200003 ], [ 88.020989037000049, 27.087682024000173 ], [ 88.016147935000049, 27.073775701000159 ], [ 88.037516874000062, 27.036583217000043 ], [ 88.059580447000144, 27.029070231000105 ], [ 88.077510979000067, 27.03531253500006 ], [ 88.092145575000188, 27.004478804000144 ], [ 88.099049826000112, 27.003700816999981 ], [ 88.114963875000115, 26.988765794000187 ], [ 88.135428324000031, 26.984852527000101 ], [ 88.123136086000102, 26.96989739900016 ], [ 88.120336098000053, 26.950567832000161 ], [ 88.145923314000072, 26.920979263000049 ], [ 88.13626634600007, 26.898673008000173 ], [ 88.161563629, 26.880922593000093 ], [ 88.174388608000072, 26.859546938999983 ], [ 88.174412262000033, 26.852949448000061 ], [ 88.167298819000109, 26.849784146000047 ], [ 88.170554134000042, 26.845177045000128 ], [ 88.167430840000065, 26.837703070000146 ], [ 88.174129077000146, 26.833480312000177 ], [ 88.171711087000119, 26.827821381000092 ], [ 88.178792504000114, 26.816528617000131 ], [ 88.177434363000089, 26.803606958000046 ], [ 88.187844406000124, 26.771668292000129 ], [ 88.186265150000054, 26.738502938000124 ], [ 88.18192484900004, 26.719491621000032 ], [ 88.167031055000109, 26.699572178000039 ], [ 88.160364532000187, 26.636585296000135 ], [ 88.141898416000117, 26.625805061 ], [ 88.139019672000188, 26.60682526700009 ], [ 88.129778681000175, 26.601318941000159 ], [ 88.130090726000162, 26.573728011000071 ], [ 88.124663834000046, 26.577609011 ], [ 88.122844008000072, 26.572282560000076 ], [ 88.117498266000098, 26.574583260000054 ], [ 88.118951042000049, 26.568177278000064 ], [ 88.112045981000051, 26.571394806000171 ], [ 88.11328575400006, 26.558302708000156 ], [ 88.105294785000126, 26.560946203000128 ], [ 88.105292211000119, 26.550738333000027 ], [ 88.111399991000098, 26.545205613000178 ], [ 88.098035584000172, 26.53739828199997 ], [ 88.103566708000074, 26.536380849000068 ], [ 88.102987004000056, 26.51890734300008 ], [ 88.09501602600011, 26.516464089000067 ], [ 88.096444088000112, 26.511281563000125 ], [ 88.09023624200006, 26.506843390000142 ], [ 88.098590629, 26.505779703000144 ], [ 88.100159003000101, 26.494490141000085 ], [ 88.105630603000066, 26.489499611000156 ], [ 88.100175594000177, 26.479832466000062 ], [ 88.107135180000114, 26.475236555000038 ], [ 88.097759074000066, 26.472621540000148 ], [ 88.102941379000129, 26.465787538000086 ], [ 88.091779066000129, 26.463086685000178 ], [ 88.096803299000101, 26.452138408000167 ], [ 88.095084215000156, 26.438410057000169 ], [ 88.069596890000128, 26.413488906999987 ], [ 88.071253490000061, 26.408085902000153 ], [ 88.059943344000033, 26.409702300000163 ], [ 88.055304210000088, 26.400796541000034 ], [ 88.047205433000101, 26.401149421000071 ], [ 88.034153511, 26.392083079000088 ], [ 88.02704116200016, 26.381890009000131 ], [ 88.031258011000091, 26.378502068000046 ], [ 88.027049037000154, 26.37109725 ], [ 88.029871941000124, 26.364991265000072 ], [ 88.007534781000061, 26.361106554000116 ], [ 87.992338787000051, 26.369690281000032 ], [ 87.991502803000174, 26.392583548 ], [ 87.965652461000047, 26.397192041000039 ], [ 87.926662933000102, 26.418311180000103 ], [ 87.925900377000062, 26.427718918000096 ], [ 87.915847203000112, 26.431861186 ], [ 87.925233678000041, 26.440032409000139 ], [ 87.924693745000013, 26.445559797000044 ], [ 87.898572411000032, 26.448790780000138 ], [ 87.909503044000189, 26.457806208000193 ], [ 87.899914074000094, 26.4774803950001 ], [ 87.887974837000172, 26.48673 ], [ 87.885444151000058, 26.476505771000063 ], [ 87.857987488000163, 26.463594682 ], [ 87.861257219000038, 26.448928008000109 ], [ 87.850842582000155, 26.445303250000052 ], [ 87.848533958000075, 26.436498527000083 ], [ 87.828070637000053, 26.44015226800019 ], [ 87.829549153000187, 26.450246114000095 ], [ 87.788806406000049, 26.469255715000088 ], [ 87.785481276000041, 26.463641762000179 ], [ 87.788465191000114, 26.461501876000057 ], [ 87.773721972000033, 26.450464555000167 ], [ 87.777611148000119, 26.442696734000037 ], [ 87.772808856000154, 26.436095339000133 ], [ 87.777652424000166, 26.435868261 ], [ 87.772429294000176, 26.430110785000068 ], [ 87.775263118000169, 26.427258958999971 ], [ 87.770381929000166, 26.427517721000072 ], [ 87.775898331000064, 26.425271954000152 ], [ 87.772910827000146, 26.420470437000176 ], [ 87.776095258000112, 26.421931245000053 ], [ 87.77258614100009, 26.419515389000026 ], [ 87.770885867000118, 26.421898464000094 ], [ 87.767431757000111, 26.41887516100013 ], [ 87.766974738000044, 26.411352051000108 ], [ 87.753681777, 26.408180077000054 ], [ 87.747322749000034, 26.417866999000069 ], [ 87.738976269000091, 26.417596679000042 ], [ 87.73352288500007, 26.407790674000069 ], [ 87.722728417000098, 26.412577624 ], [ 87.722202833000097, 26.419232603000069 ], [ 87.711016341000175, 26.427367193000066 ], [ 87.698339268000154, 26.42821944700006 ], [ 87.691930990000174, 26.435647688000131 ], [ 87.677553225000054, 26.435391568999989 ], [ 87.678203213000188, 26.415826269000149 ], [ 87.650140997000051, 26.405885420000175 ], [ 87.651714201000175, 26.393518891000042 ], [ 87.611997777999989, 26.39017844500006 ], [ 87.604485460000149, 26.380804865000016 ], [ 87.586956504, 26.382161800000119 ], [ 87.587642054000071, 26.392609350000043 ], [ 87.552708265000035, 26.405739886000049 ], [ 87.547414158000151, 26.418539434000024 ], [ 87.516263214000048, 26.430935792000184 ], [ 87.46648037000017, 26.440390623999974 ], [ 87.442911331000062, 26.43307513600007 ], [ 87.427646043000152, 26.422427465000112 ], [ 87.388398880000125, 26.419070975000182 ], [ 87.375968319000037, 26.407037914000114 ], [ 87.368561317000172, 26.408077189000039 ], [ 87.356265976000088, 26.38820687000009 ], [ 87.353233918000058, 26.372031900000081 ], [ 87.35819114800006, 26.361065687000178 ], [ 87.34085756200011, 26.347762022000154 ], [ 87.312217734000058, 26.371484015000135 ], [ 87.301207521000094, 26.366278890000103 ], [ 87.289335453000092, 26.373732342000096 ], [ 87.265763498000126, 26.373884090000047 ], [ 87.266026693000128, 26.4056439740001 ], [ 87.256141411000044, 26.411141193999981 ], [ 87.228662347000181, 26.41370391200013 ], [ 87.218799231000162, 26.403196516999969 ], [ 87.211219679000067, 26.413135020000141 ], [ 87.185807505000128, 26.414257964000114 ], [ 87.188930357000061, 26.405520589999981 ], [ 87.162364515000036, 26.404050238000025 ], [ 87.138922370000103, 26.414934060000121 ], [ 87.091394239000067, 26.45034107500004 ], [ 87.080055808000054, 26.521716807000018 ], [ 87.072553642000173, 26.541958352000165 ], [ 87.071665403000168, 26.58577122100013 ], [ 87.044525453000062, 26.587267163000092 ], [ 87.042209052000146, 26.568318955000166 ], [ 87.015168491000054, 26.532096426000066 ], [ 86.990699863000032, 26.523124515000177 ], [ 86.979223245000071, 26.525120448 ], [ 86.97497921900009, 26.520033377000175 ], [ 86.961150868000175, 26.523769491000053 ], [ 86.932504428000186, 26.51674515000019 ], [ 86.929741949000118, 26.489603082000087 ], [ 86.89154741800013, 26.486135514000068 ], [ 86.893626057000063, 26.461900655000079 ], [ 86.872831676000033, 26.454039466999973 ], [ 86.860837841000034, 26.457553199000131 ], [ 86.855931114000043, 26.44847433800004 ], [ 86.845797559000118, 26.448219992000134 ], [ 86.846729452000034, 26.441886558000135 ], [ 86.83331288100004, 26.439010131000089 ], [ 86.76616946200005, 26.459289118000129 ], [ 86.764012233000187, 26.451213531000121 ], [ 86.7438680140001, 26.434948963000124 ], [ 86.746917322000172, 26.428500390000124 ], [ 86.73080692200017, 26.422308017000148 ], [ 86.7200234230001, 26.434859112000083 ], [ 86.699694633000149, 26.437349849000043 ], [ 86.693250045000184, 26.451167160000125 ], [ 86.633256982000091, 26.464518193000117 ], [ 86.626019441000153, 26.469482071000186 ], [ 86.629240649000053, 26.478025009000191 ], [ 86.620489523000174, 26.48436349200017 ], [ 86.57015273900015, 26.496469741000055 ], [ 86.541723589000128, 26.538462337000169 ], [ 86.523745131000112, 26.543464959 ], [ 86.515605533000098, 26.53919281400016 ], [ 86.497184674000152, 26.542295096000146 ], [ 86.455374683000116, 26.568082991000153 ], [ 86.39486019300017, 26.585114949000058 ], [ 86.396789759000114, 26.593524249000041 ], [ 86.340794846000051, 26.605995996000161 ], [ 86.34470523300007, 26.616730315000041 ], [ 86.333173375000172, 26.618933297000069 ], [ 86.30774397700003, 26.619973888000118 ], [ 86.292758826000124, 26.613243466000085 ], [ 86.252043177000076, 26.61705642600009 ], [ 86.243088275000105, 26.602766082000073 ], [ 86.234407197000166, 26.597922230000052 ], [ 86.234303927000155, 26.590766353000106 ], [ 86.21716896300012, 26.588416637000023 ], [ 86.205258088000051, 26.596614028000147 ], [ 86.195531968000125, 26.594352432000051 ], [ 86.192137290000119, 26.614673160000109 ], [ 86.171438561000173, 26.617108465000058 ], [ 86.142352550000112, 26.60501970700011 ], [ 86.135919295000122, 26.606524153000066 ], [ 86.140811065000037, 26.616642477000028 ], [ 86.138340689000074, 26.628920673000039 ], [ 86.119270965000169, 26.630015625000055 ], [ 86.073833789000162, 26.649707620000186 ], [ 86.067870895000112, 26.657854929000109 ], [ 86.02688593400012, 26.666659953000135 ], [ 86.011747624000066, 26.659542630000033 ], [ 86.009702886000184, 26.653898651000134 ], [ 85.9757818490001, 26.658207131000097 ], [ 85.96007354700015, 26.651335214000028 ], [ 85.953214226000057, 26.643861377000064 ], [ 85.955438966000145, 26.630574142000171 ], [ 85.946031893000111, 26.62117011700002 ], [ 85.947877753000057, 26.613484946000028 ], [ 85.928424731000064, 26.616494226000157 ], [ 85.927043743000183, 26.609635678000188 ], [ 85.91379873700015, 26.608885457000042 ], [ 85.91295212700004, 26.604537634999986 ], [ 85.90027724600003, 26.600358472000153 ], [ 85.90057613100015, 26.59501775800004 ], [ 85.891583319000176, 26.594408722000082 ], [ 85.887667130000068, 26.583170826000014 ], [ 85.879385824, 26.583791818000066 ], [ 85.858413750000125, 26.568877643000178 ], [ 85.856737403000068, 26.572027652000145 ], [ 85.849016291000169, 26.56885167500019 ], [ 85.848217101000103, 26.576853023000183 ], [ 85.857651471000167, 26.589912038000023 ], [ 85.850879029000112, 26.608503921000079 ], [ 85.831088055, 26.6112895280001 ], [ 85.830505583000161, 26.601620866000189 ], [ 85.817396648000056, 26.60273773300014 ], [ 85.803212934000157, 26.614911614000107 ], [ 85.8012801160001, 26.624263511000038 ], [ 85.76917725800007, 26.629921161000084 ], [ 85.734055608000062, 26.650514949000126 ], [ 85.7363484010001, 26.663933059000101 ], [ 85.725328896000065, 26.670395869000174 ], [ 85.723238262000109, 26.686816143000044 ], [ 85.725881319000052, 26.721295097 ], [ 85.733966984000176, 26.73742519200016 ], [ 85.728608421999979, 26.749982873000079 ], [ 85.734316836000175, 26.795853501000067 ], [ 85.720582928000169, 26.820528161000084 ], [ 85.679285663000087, 26.843676236000192 ], [ 85.642243566000047, 26.853216519000057 ], [ 85.634285460000115, 26.872211087000153 ], [ 85.623349930000188, 26.873564720000161 ], [ 85.606805191000035, 26.857239628000116 ], [ 85.585063879000074, 26.847173461000125 ], [ 85.583643397000117, 26.858135284000184 ], [ 85.57805772800009, 26.856360033000101 ], [ 85.575211192000097, 26.861033136000117 ], [ 85.565587623999988, 26.840933120000102 ], [ 85.557521368000153, 26.843998339000109 ], [ 85.553286314000047, 26.834298935000163 ], [ 85.542872032000048, 26.838365839 ], [ 85.519686073000059, 26.814395435000165 ], [ 85.507373638000104, 26.816790643000104 ], [ 85.497638576000043, 26.812036087000024 ], [ 85.49574057600006, 26.796984817000066 ], [ 85.479689444000144, 26.802335703000153 ], [ 85.477484625000045, 26.792447660999983 ], [ 85.454622843000095, 26.781852775000175 ], [ 85.432464205000088, 26.790099116000135 ], [ 85.425368972000172, 26.785899868000115 ], [ 85.407595818000118, 26.791217103000179 ], [ 85.397659261000115, 26.77848249800013 ], [ 85.384112501000118, 26.774143842000171 ], [ 85.375127896000095, 26.760644631000105 ], [ 85.355180708000034, 26.760252460000061 ], [ 85.334404132000145, 26.741508767000084 ], [ 85.306553630000053, 26.752176053000028 ], [ 85.260188841000115, 26.755204021000054 ], [ 85.240118150000114, 26.761876789000098 ], [ 85.211667154999986, 26.757876548000127 ], [ 85.197018707000154, 26.769918620000169 ], [ 85.191538116000117, 26.782110329000034 ], [ 85.19325852999998, 26.790552300000115 ], [ 85.180239009000047, 26.795735754000191 ], [ 85.1823251940001, 26.800831026000083 ], [ 85.17664344700006, 26.809655217 ], [ 85.191064923000113, 26.831205927000042 ], [ 85.189755987000183, 26.870069473000058 ], [ 85.139903269000058, 26.871121121000044 ], [ 85.134049357000094, 26.867770259000054 ], [ 85.111036912000031, 26.872433969000099 ], [ 85.08658648100004, 26.867362452000179 ], [ 85.087101959000051, 26.852864055000055 ], [ 85.078163826000093, 26.85877401099998 ], [ 85.063841832000094, 26.849645208000084 ], [ 85.064544157000171, 26.856826272000035 ], [ 85.057805372000132, 26.856069104000085 ], [ 85.057302703000175, 26.849146020000148 ], [ 85.021908867000036, 26.854852936000043 ], [ 85.028646079000055, 26.859287405000032 ], [ 85.029167935000032, 26.875251502000083 ], [ 85.037337928000056, 26.878059575000179 ], [ 85.04157944200017, 26.874562641000182 ], [ 85.043028648000188, 26.879635404000055 ], [ 85.052121043999989, 26.881244473000095 ], [ 85.049720462000153, 26.8823114650001 ], [ 85.048260596000148, 26.88519006100006 ], [ 85.055073526000058, 26.881423256000062 ], [ 85.059750519000033, 26.88534804700015 ], [ 85.060125686000106, 26.886920103000023 ], [ 85.003768126000182, 26.895068647000073 ], [ 84.992617432000031, 26.90288214800006 ], [ 84.99572107400013, 26.906610245000081 ], [ 85.002095801000053, 26.903383759000121 ], [ 84.999403413000039, 26.912155065000036 ], [ 84.967506154000091, 26.916233307000141 ], [ 84.97815945100001, 26.940266353000027 ], [ 84.962205203000167, 26.960464055000159 ], [ 84.929301120000048, 26.968658541000138 ], [ 84.909829575000174, 26.967952974000127 ], [ 84.895507925000061, 26.972916051000141 ], [ 84.891332600000169, 26.96979269600007 ], [ 84.88845238600004, 26.977489156000104 ], [ 84.858902545000149, 26.989096209000081 ], [ 84.855968421000057, 26.986523763000037 ], [ 84.857692655000051, 26.997682178 ], [ 84.849988220000057, 26.998356117000071 ], [ 84.854582666000056, 27.008195257000068 ], [ 84.825470746000065, 27.020891594000148 ], [ 84.811940845000152, 27.02075588800011 ], [ 84.812314208000032, 27.015839455000162 ], [ 84.808936606000145, 27.018207752000137 ], [ 84.806813895000118, 27.014659407000067 ], [ 84.810784513000044, 27.013828796000155 ], [ 84.808197351, 27.007765105000033 ], [ 84.800146244000075, 27.000705787000186 ], [ 84.797006151000062, 27.00414874400019 ], [ 84.793459225000049, 26.995784115999982 ], [ 84.78619062700011, 26.998501007000186 ], [ 84.788680152000154, 27.008915935 ], [ 84.784110523000152, 27.008009566000055 ], [ 84.782526172000075, 27.014126310999984 ], [ 84.772960046000094, 27.017802830000164 ], [ 84.756645500000047, 27.002821208000114 ], [ 84.642666475000169, 27.046443808000106 ], [ 84.646211360000109, 27.075555215000122 ], [ 84.658161140000118, 27.079567989000168 ], [ 84.65504976700015, 27.084309642000164 ], [ 84.670236191000129, 27.090941736000048 ], [ 84.664678413000161, 27.094623443000103 ], [ 84.674542824000184, 27.096440254000072 ], [ 84.674705367000058, 27.108732163000013 ], [ 84.669794732000071, 27.110382375000142 ], [ 84.67687526300017, 27.115168063000169 ], [ 84.677258908000056, 27.13334114100013 ], [ 84.683461568000041, 27.143604517000028 ], [ 84.680259321000051, 27.151975344000164 ], [ 84.686645472000066, 27.15850343000011 ], [ 84.676819562999981, 27.162544848000152 ], [ 84.680800787000067, 27.168784670000093 ], [ 84.675158801000066, 27.170892328000036 ], [ 84.685177970000154, 27.180505386000107 ], [ 84.679124978000061, 27.18564539200014 ], [ 84.683453059000158, 27.196567553000136 ], [ 84.680425815000149, 27.200648204000174 ], [ 84.687172190000126, 27.209074250000128 ], [ 84.684594387000061, 27.213008357000149 ], [ 84.690856396000129, 27.214967722000154 ], [ 84.647900829000037, 27.297846702000129 ], [ 84.618710131000057, 27.337789167000153 ], [ 84.607649708, 27.335373827000183 ], [ 84.564920618000087, 27.347520613000142 ], [ 84.50361703100009, 27.354654987000174 ], [ 84.476311366000061, 27.362480972000128 ], [ 84.469505916000116, 27.355166454000084 ], [ 84.446340686999974, 27.363719505000176 ], [ 84.441078754000102, 27.370186967000052 ], [ 84.391730711000093, 27.368154544000049 ], [ 84.372735623000153, 27.376615982000089 ], [ 84.356033214000092, 27.373428501000035 ], [ 84.33248388300018, 27.377378770000121 ], [ 84.300455746000011, 27.390405032000047 ], [ 84.292026663000115, 27.384813648000147 ], [ 84.282376583000143, 27.396507886000165 ], [ 84.276302284000167, 27.395626492000076 ], [ 84.278059337000116, 27.415634479000062 ], [ 84.272503935000032, 27.428797649999979 ], [ 84.258554214000185, 27.438736287000154 ], [ 84.259378088000119, 27.445799356 ], [ 84.254147782000075, 27.452056712000115 ], [ 84.231582131000039, 27.456281599000192 ], [ 84.220824482000182, 27.447630201999971 ], [ 84.219434562000117, 27.440389580000044 ], [ 84.208444728000131, 27.442583833000185 ], [ 84.205715612000063, 27.469659301000036 ], [ 84.194375921000187, 27.473245112000029 ], [ 84.191024072000062, 27.46922448100014 ], [ 84.171464979000064, 27.475675905000116 ], [ 84.163530057000116, 27.483799238000188 ], [ 84.14880765900017, 27.485925440000074 ], [ 84.144317037000064, 27.496898134000048 ], [ 84.14984316000016, 27.500908550000077 ], [ 84.1509945090001, 27.516426238000065 ], [ 84.145704916000057, 27.518803317000163 ], [ 84.124074758000063, 27.511048981000044 ], [ 84.108541485000103, 27.521732089000011 ], [ 84.097749947000182, 27.517211699000086 ], [ 84.095360502000119, 27.489575641000044 ], [ 84.070647069000131, 27.481733828000188 ], [ 84.058422786000051, 27.461206915000048 ], [ 84.061657212000171, 27.455891817000122 ], [ 84.051976322000144, 27.442736845000013 ], [ 84.031608363000032, 27.441619250000031 ], [ 84.02579757500007, 27.438434506000135 ], [ 84.027104807000057, 27.433625958000164 ], [ 84.015689615000042, 27.434755865000113 ], [ 84.005134307000162, 27.442220654000039 ], [ 83.998021784000059, 27.440636810000115 ], [ 83.996068935000039, 27.446151284 ], [ 83.97746379400013, 27.439303732000099 ], [ 83.965996613000186, 27.446584900000175 ], [ 83.945835026000111, 27.441147510000064 ], [ 83.942088706000106, 27.447723235000126 ], [ 83.931107442000098, 27.449557148999986 ], [ 83.869261371000164, 27.429638972000134 ], [ 83.867316477000031, 27.42464614000005 ], [ 83.875475763000111, 27.405659720000131 ], [ 83.872730200000035, 27.392344747000038 ], [ 83.905150754000033, 27.389721550000161 ], [ 83.906262739000113, 27.382917116000101 ], [ 83.887716557000033, 27.358360965000031 ], [ 83.862667304000183, 27.346643814000174 ], [ 83.829888326000173, 27.370288311000138 ], [ 83.614731414000119, 27.46952651800018 ], [ 83.388794086000189, 27.479665540000099 ], [ 83.392300740999985, 27.476434134000101 ], [ 83.388553662000049, 27.47067328300011 ], [ 83.402485013000103, 27.466338510000185 ], [ 83.401874697000096, 27.457624472000191 ], [ 83.395960570000057, 27.446664994000059 ], [ 83.383863764000125, 27.442370323000091 ], [ 83.384175089000053, 27.43617825900003 ], [ 83.409534093, 27.412639949999971 ], [ 83.40237602100018, 27.400897085000167 ], [ 83.384755505000101, 27.39035807900018 ], [ 83.388044842000056, 27.37587361900006 ], [ 83.374722979000069, 27.369952763000072 ], [ 83.373701790000041, 27.35729488700008 ], [ 83.357887397000127, 27.350756548000106 ], [ 83.359142558000144, 27.34324661800008 ], [ 83.3374975750001, 27.332796044000133 ], [ 83.317865482000116, 27.337324655000089 ], [ 83.317484353999987, 27.33014779500013 ], [ 83.294658961000152, 27.333371476000139 ], [ 83.272724772000117, 27.352644915000099 ], [ 83.265556925000055, 27.365544834000104 ], [ 83.272211508999987, 27.38361168199998 ], [ 83.217575975999978, 27.417290459000128 ], [ 83.187801628000102, 27.454408608000051 ], [ 83.164428187000169, 27.457632094000132 ], [ 83.034077881000087, 27.448861013000112 ], [ 82.954156705000059, 27.467928115000177 ], [ 82.929377966, 27.5011593750001 ], [ 82.870298037000168, 27.498591803000124 ], [ 82.83239135700012, 27.502044186000035 ], [ 82.801875851000148, 27.496507867 ], [ 82.735730091000164, 27.502523674000088 ], [ 82.736717426000098, 27.518031411000095 ], [ 82.743052541000111, 27.516696874000047 ], [ 82.742002974000059, 27.521122645000048 ], [ 82.749413265000101, 27.522813850000091 ], [ 82.747165593000091, 27.531546902000059 ], [ 82.741979716000117, 27.532086653000192 ], [ 82.738114242000165, 27.552037480000081 ], [ 82.747033181000177, 27.555039713000099 ], [ 82.743512983000016, 27.560891508000111 ], [ 82.751233994000188, 27.565249789 ], [ 82.747676222000166, 27.57194738000004 ], [ 82.755763601000069, 27.587728569999967 ], [ 82.734836002000179, 27.609623158000034 ], [ 82.733003263000171, 27.618934912999975 ], [ 82.736624103000054, 27.621693154000013 ], [ 82.730720850000068, 27.624001234000048 ], [ 82.736621896000145, 27.626101254000105 ], [ 82.736215013000162, 27.643112083000062 ], [ 82.728046312000117, 27.64556630400017 ], [ 82.731327561000057, 27.649000603000047 ], [ 82.725523727000166, 27.65837954400007 ], [ 82.720318757000086, 27.657293752999976 ], [ 82.72026849800011, 27.661638297000138 ], [ 82.711685773000113, 27.665057799000067 ], [ 82.715799540000035, 27.668044464 ], [ 82.718227860000013, 27.687416180000184 ], [ 82.705828988000178, 27.702835227000094 ], [ 82.707941230000131, 27.721847596000146 ], [ 82.705088709000108, 27.716533099000173 ], [ 82.699182839000116, 27.7219392720001 ], [ 82.680620917000169, 27.713721247000024 ], [ 82.666440970999986, 27.715624681000122 ], [ 82.664144599000053, 27.722052127000097 ], [ 82.655169275000162, 27.713270981000107 ], [ 82.638453533000131, 27.70907630500011 ], [ 82.627759610000055, 27.711476995000169 ], [ 82.618780797000113, 27.70222426700019 ], [ 82.604977142000109, 27.70592535600008 ], [ 82.593619580000052, 27.696899760000065 ], [ 82.584865163000188, 27.698567920000073 ], [ 82.541088018000153, 27.685695142999975 ], [ 82.516191150000054, 27.690393483000094 ], [ 82.490005329000098, 27.681199629 ], [ 82.481852021000179, 27.682782681000049 ], [ 82.473161737, 27.676471066000033 ], [ 82.448682420000068, 27.678685015000156 ], [ 82.401574682000046, 27.702854146000163 ], [ 82.38229895600017, 27.720309848000113 ], [ 82.367111155000032, 27.742638290000173 ], [ 82.303840681000111, 27.772591727000076 ], [ 82.252717316000087, 27.810115775000099 ], [ 82.230434496999976, 27.820765551000193 ], [ 82.208217710000042, 27.843099202000019 ], [ 82.153949226000123, 27.866175019000025 ], [ 82.149958348000155, 27.857901967000146 ], [ 82.123302122000098, 27.865011319000189 ], [ 82.091352958000186, 27.894642730000101 ], [ 82.070912463000127, 27.922619139000176 ], [ 81.968174884000064, 27.9289406850001 ], [ 81.925360404000173, 27.875787565999985 ], [ 81.926108274000057, 27.859764663000078 ], [ 81.901151804000165, 27.853655936000052 ], [ 81.8854356760001, 27.856986103 ], [ 81.832678818000034, 27.898059123000053 ], [ 81.821095598000113, 27.903448408000031 ], [ 81.804849166000054, 27.90336819200013 ], [ 81.698277130000122, 27.988191594000057 ], [ 81.643414752000069, 27.993810641000039 ], [ 81.624294765000172, 28.001370874000031 ], [ 81.617028215000062, 28.010396448 ], [ 81.47835077700006, 28.082530452000015 ], [ 81.483984588000169, 28.118240252000078 ], [ 81.449884875, 28.14086977400018 ], [ 81.445811322000054, 28.161307280000074 ], [ 81.414809171000059, 28.174237235000078 ], [ 81.374642504000121, 28.176938444000029 ], [ 81.366841948000058, 28.165340779000132 ], [ 81.378307812000173, 28.155493402000047 ], [ 81.371233745000097, 28.142375573000152 ], [ 81.334387273000175, 28.140182779000043 ], [ 81.317966548000129, 28.133541542999978 ], [ 81.318295616, 28.145220600000073 ], [ 81.32785170700015, 28.148268573000109 ], [ 81.320109301000059, 28.160244182000042 ], [ 81.31058523300004, 28.155562171000156 ], [ 81.301749188000031, 28.166068211999971 ], [ 81.321185632000038, 28.168817032000049 ], [ 81.324688364000167, 28.175033259000031 ], [ 81.31829479400011, 28.182366936000108 ], [ 81.320531422000101, 28.197247410000159 ], [ 81.28603025100017, 28.228518572000098 ], [ 81.232666016000167, 28.288967168000113 ], [ 81.234506342000032, 28.32463215700011 ], [ 81.210592722000115, 28.360562400000163 ], [ 81.085388277000106, 28.383233824000172 ], [ 81.034768708000172, 28.413349311000161 ], [ 81.032265547000122, 28.398737627000173 ], [ 81.01668775100012, 28.415753099000085 ], [ 81.033710854000049, 28.427909889000148 ], [ 81.029522745000179, 28.438538978000054 ], [ 81.019150147000119, 28.43166897500015 ], [ 81.012932692, 28.438209913000094 ], [ 81.01740204500004, 28.451621421000084 ], [ 80.999648857000011, 28.453989092000143 ], [ 80.989123185000096, 28.441632469000126 ], [ 80.977794587000119, 28.442477116000134 ], [ 80.979037618000064, 28.434335322000038 ], [ 80.965155634000041, 28.437768322000068 ], [ 80.96802765700005, 28.442867701000182 ], [ 80.964778508000109, 28.44459724900014 ], [ 80.979777351000052, 28.455241900000033 ], [ 80.96698862400018, 28.456976572000031 ], [ 80.964020652000102, 28.449571591000108 ], [ 80.951685615000088, 28.447519306000061 ], [ 80.951536498999985, 28.455575435000185 ], [ 80.932219763000091, 28.458583401000055 ], [ 80.945188185000177, 28.466110815000093 ], [ 80.942485575000035, 28.468424378000066 ], [ 80.930524634999983, 28.457601282000041 ], [ 80.917527306000068, 28.459728165000058 ], [ 80.919504845, 28.463736008000126 ], [ 80.914415530000042, 28.467796003000046 ], [ 80.915583356000184, 28.457626645000119 ], [ 80.905653444000166, 28.465768825 ], [ 80.901362943000152, 28.485679490000109 ], [ 80.908552451000105, 28.497557799000163 ], [ 80.896045642000104, 28.505634263000161 ], [ 80.875779020000152, 28.509743490000062 ], [ 80.861504246000152, 28.504128072000128 ], [ 80.8654863860001, 28.489547099000106 ], [ 80.855225593000114, 28.497091829000169 ], [ 80.844300297000132, 28.495450962 ], [ 80.815404808000039, 28.520641190000049 ], [ 80.788934164000068, 28.524347564000152 ], [ 80.784479875000045, 28.529263114000059 ], [ 80.789467898, 28.543352750000054 ], [ 80.769464579000044, 28.549686588000043 ], [ 80.767903086999979, 28.565599782999982 ], [ 80.738337725000179, 28.574195288000055 ], [ 80.738688315000047, 28.565860252000164 ], [ 80.724455669000122, 28.574781428000051 ], [ 80.714558695000164, 28.56786456500015 ], [ 80.690206633000173, 28.587056657000062 ], [ 80.695649431000049, 28.603352405000123 ], [ 80.677323477000016, 28.604325202000041 ], [ 80.67949084900016, 28.620442236000088 ], [ 80.670690482000055, 28.628321391000156 ], [ 80.667542185000059, 28.641869593000081 ], [ 80.651165802000151, 28.633894307000105 ], [ 80.641444223, 28.643249064000088 ], [ 80.633205445000101, 28.637296259000038 ], [ 80.611505185000169, 28.639277356000093 ], [ 80.606182321000119, 28.652343951000034 ], [ 80.589653091000116, 28.647715479000055 ], [ 80.597525754000173, 28.655937069000174 ], [ 80.580119792000119, 28.661260037000034 ], [ 80.590342902000032, 28.679706332000137 ], [ 80.568612922000113, 28.687884042000178 ], [ 80.539784063000013, 28.690615791000141 ], [ 80.506093863000103, 28.670970120000106 ], [ 80.503468629000167, 28.665192185000137 ], [ 80.521553865000158, 28.57687755000012 ], [ 80.530661200000054, 28.57224403400005 ], [ 80.52289163800009, 28.552964847000169 ], [ 80.517574569000033, 28.551793263000036 ], [ 80.506378831000063, 28.56804536300001 ], [ 80.481059313000173, 28.585343997000109 ], [ 80.468196101000103, 28.583365391000029 ], [ 80.471694261000152, 28.590209927000046 ], [ 80.460249312000087, 28.61376390700002 ], [ 80.464281118000088, 28.614914601000066 ], [ 80.451573816000064, 28.628606731000161 ], [ 80.418376804000161, 28.639003341999967 ], [ 80.376318471, 28.628306050000049 ], [ 80.360707175000073, 28.635492873000032 ], [ 80.357165949000034, 28.640653286000088 ], [ 80.3603393140001, 28.645349203000023 ], [ 80.325880369000117, 28.666326254000126 ], [ 80.317261438000116, 28.69981172100006 ], [ 80.293632480999975, 28.711296729000139 ], [ 80.277554640000119, 28.709946276000039 ], [ 80.256182497000054, 28.729354638000075 ], [ 80.26298629900009, 28.734262080000065 ], [ 80.265053555000065, 28.743504122 ], [ 80.251441254000042, 28.757354536000094 ], [ 80.216038316000038, 28.755353713000147 ], [ 80.170925990000057, 28.782329698000069 ], [ 80.118100535999986, 28.828768021000087 ], [ 80.074969201999977, 28.824330959000122 ], [ 80.064732646000152, 28.837320995000027 ], [ 80.058467108000116, 28.916371417000164 ], [ 80.10023180800016, 28.986418835000165 ], [ 80.117923835000056, 28.981638942000188 ], [ 80.126792034000061, 29.005988279000064 ], [ 80.135573560000125, 29.007240585000091 ], [ 80.124555165000174, 29.013020468000036 ], [ 80.136464347000185, 29.058847210000124 ], [ 80.128480094000111, 29.061019719 ], [ 80.144356539000057, 29.102962185000081 ], [ 80.183437551000111, 29.137047553000173 ], [ 80.203411622000147, 29.129295469 ], [ 80.209689134000143, 29.121800938000149 ], [ 80.23326083, 29.118423490999987 ], [ 80.254056151000157, 29.137912621000169 ], [ 80.271633044000055, 29.142042459000095 ], [ 80.258323667000127, 29.165732948000141 ], [ 80.257895431, 29.187301549000097 ], [ 80.240772781000089, 29.20241091500003 ], [ 80.248288378000154, 29.220963211000139 ], [ 80.255983910000054, 29.219391207000115 ], [ 80.260784586000057, 29.206666585000107 ], [ 80.274966945000131, 29.207017108000059 ], [ 80.287207712000168, 29.195145877000073 ], [ 80.29725191600005, 29.205035956000074 ], [ 80.290662192000184, 29.231532264 ], [ 80.300319688000059, 29.242065215000139 ], [ 80.304260174000149, 29.285236346000147 ], [ 80.317920835000052, 29.30159023900012 ], [ 80.316886070000123, 29.314717308000127 ], [ 80.308369418000154, 29.322766694000165 ], [ 80.296171947000175, 29.324169092000034 ], [ 80.280104786000095, 29.346199756000146 ], [ 80.279306487000042, 29.359386260000178 ], [ 80.271091159000093, 29.364459553000074 ], [ 80.271268293, 29.373613822000152 ], [ 80.278888600000187, 29.37849802400018 ], [ 80.272898859000122, 29.386134543000082 ], [ 80.274622068000099, 29.392962611000144 ], [ 80.241612927000176, 29.41153637900004 ], [ 80.245928505, 29.416038200000116 ], [ 80.247438548000162, 29.434641786000157 ], [ 80.242925453000055, 29.443715187000123 ], [ 80.258100104000164, 29.45173344300008 ], [ 80.274248607000061, 29.449465364000105 ], [ 80.269143154000119, 29.454981655000097 ], [ 80.276178937000054, 29.458484605000024 ], [ 80.280454615000167, 29.457544747000043 ], [ 80.28045154199998, 29.450856876000103 ], [ 80.302465972000164, 29.453040205000036 ], [ 80.286605757000189, 29.47681564200019 ], [ 80.292998965000152, 29.478823412 ], [ 80.2990472460001, 29.490525702000184 ], [ 80.313029799000162, 29.484459016000187 ], [ 80.313826818000109, 29.498991285000102 ], [ 80.328676980000125, 29.505276639000044 ], [ 80.332287790000123, 29.512855535000085 ], [ 80.34124416800006, 29.509900304000041 ], [ 80.349616239000113, 29.51884875900015 ], [ 80.34847511900017, 29.52407612900015 ], [ 80.357960295000169, 29.532465651000109 ], [ 80.348524521000172, 29.540411219000077 ], [ 80.341801637000117, 29.540256270000157 ], [ 80.345625471000119, 29.548537292000162 ], [ 80.342658743000129, 29.552853348000042 ], [ 80.363994489000106, 29.556550340000058 ], [ 80.363609166000117, 29.564003135000064 ], [ 80.378798493000033, 29.561262341000088 ], [ 80.379075284000123, 29.571415952000109 ], [ 80.38790349900006, 29.571691479000037 ], [ 80.391411846000153, 29.58154641100009 ], [ 80.407958205000057, 29.595312458000024 ], [ 80.405678906000048, 29.612767099000166 ], [ 80.41062939, 29.624933081000108 ], [ 80.420910015000061, 29.629710518000081 ], [ 80.420201702000156, 29.639063440000143 ], [ 80.41400165500005, 29.644269057000031 ], [ 80.414487485000109, 29.65390465500019 ], [ 80.405638914000122, 29.65992816000005 ], [ 80.398079725, 29.658775356000092 ], [ 80.384473023000055, 29.674325652000107 ], [ 80.38521167500005, 29.685006781000027 ], [ 80.380351159000099, 29.688480202999983 ], [ 80.379844453000089, 29.700955395000165 ], [ 80.37199085400016, 29.715229635000071 ], [ 80.37547104500004, 29.719772878000015 ], [ 80.366370604000167, 29.723920367000119 ], [ 80.369647599000132, 29.734347553000077 ], [ 80.364096203000031, 29.740065691000154 ], [ 80.368007294000051, 29.750565753000103 ], [ 80.385754535000046, 29.750340320000191 ], [ 80.385133795, 29.758459547000086 ], [ 80.397504698000148, 29.75920663900007 ], [ 80.406856860000175, 29.79437157100017 ], [ 80.413098294000179, 29.79176952500012 ], [ 80.428893503000154, 29.798023268000065 ], [ 80.435335163000047, 29.805992539000101 ], [ 80.444126633000053, 29.799049060000186 ], [ 80.463912283000184, 29.802193713000065 ], [ 80.493313216000047, 29.795457489000114 ], [ 80.492677502, 29.801964429000066 ], [ 80.500242841000045, 29.808628963000103 ], [ 80.497359565000068, 29.811500592000129 ], [ 80.507231936000039, 29.823020512000085 ], [ 80.521723492000035, 29.826964521000036 ], [ 80.535793970000043, 29.838587737000182 ], [ 80.538865021, 29.847072415000014 ], [ 80.552668746000052, 29.850320480000107 ], [ 80.551492926000094, 29.856431139000051 ], [ 80.561539864000054, 29.866323652000119 ], [ 80.556859311000096, 29.870534880000037 ], [ 80.572604016000128, 29.895176203000062 ], [ 80.569661554000049, 29.908925116000148 ], [ 80.574215794000111, 29.923384001000045 ], [ 80.595345788000088, 29.952961241000139 ], [ 80.629777938000132, 29.965061626000079 ], [ 80.64856019500013, 29.955831750000073 ], [ 80.674053148000098, 29.957097226000144 ], [ 80.719521780000036, 30.000227395000138 ], [ 80.73802867500018, 29.99943322200005 ], [ 80.744627869000112, 30.003912015000026 ], [ 80.757476923000127, 30.023813810000092 ], [ 80.755647080000131, 30.039519739000127 ], [ 80.761156013000061, 30.049417818000109 ], [ 80.779391988000157, 30.056572389999985 ], [ 80.789775004000035, 30.073015917000134 ], [ 80.815367294000112, 30.09626969500016 ], [ 80.822461186000169, 30.099809270000037 ], [ 80.837035591000188, 30.097367451000082 ], [ 80.84518262500012, 30.102237791000164 ], [ 80.841777449000119, 30.110333041000104 ], [ 80.844880105000186, 30.115943804999972 ], [ 80.877454995000164, 30.128419261000147 ], [ 80.871277195000062, 30.160841986000094 ], [ 80.863037327000029, 30.169515505000163 ], [ 80.880030419000093, 30.181208482000159 ], [ 80.897148513000161, 30.212230400000067 ], [ 80.927377717000013, 30.235754227000029 ], [ 80.976075224000056, 30.237865137000028 ], [ 80.98860661700013, 30.246692206000034 ], [ 81.028765867000061, 30.232933852000144 ], [ 81.02569273600011, 30.226945758000113 ], [ 81.028933295000058, 30.219761608000056 ], [ 81.04502018900007, 30.20997763400004 ], [ 81.033466530000112, 30.196940267000173 ], [ 81.042380298000069, 30.19351627900005 ], [ 81.043784033000122, 30.180506527999967 ], [ 81.051607918000116, 30.178866168000127 ], [ 81.063998518000176, 30.158697186000097 ], [ 81.077276692000112, 30.154803927000103 ], [ 81.083044456000039, 30.148110827000153 ], [ 81.078163882000183, 30.124576044000037 ], [ 81.084413412000174, 30.1167931170001 ], [ 81.081116857000154, 30.100447739000174 ], [ 81.098210006000045, 30.099935339000069 ], [ 81.107996501000173, 30.087946734000127 ], [ 81.107110502000182, 30.077734747000136 ], [ 81.100716503, 30.074733254000023 ], [ 81.090793067000163, 30.054143620000104 ], [ 81.106541138000125, 30.044295706000128 ], [ 81.110653105999972, 30.035574900000142 ], [ 81.118051611000112, 30.034152012000163 ], [ 81.123796702, 30.020192097000177 ], [ 81.149236477000045, 30.011500211000111 ], [ 81.177580002000127, 30.015021903000161 ], [ 81.183906833000037, 30.010714335000102 ], [ 81.19484366100005, 30.022817162000024 ], [ 81.207173437000051, 30.020680474000187 ], [ 81.217353346000095, 30.007232698000053 ], [ 81.245112382000059, 30.011038543999973 ], [ 81.253149291000057, 30.023559228000181 ], [ 81.23726732800003, 30.031708486000127 ], [ 81.271849999000153, 30.045187892000058 ], [ 81.274492807000172, 30.058974506000141 ], [ 81.289459265000175, 30.074351644000046 ], [ 81.285855250000168, 30.078369714000189 ], [ 81.289093870000045, 30.09470103200016 ], [ 81.285096103000114, 30.105057748000149 ], [ 81.290384857000049, 30.112450751000154 ], [ 81.257046311000067, 30.143681267000147 ], [ 81.25798128800011, 30.151221569000143 ], [ 81.30346223000015, 30.159268645 ], [ 81.304753083000151, 30.164189199000191 ], [ 81.316652859000101, 30.151896092000072 ], [ 81.332018277000088, 30.153148194000153 ], [ 81.350523564000071, 30.177970491000053 ], [ 81.370131443, 30.186523215000136 ], [ 81.374431969000057, 30.196635509000032 ], [ 81.396331960000055, 30.208923914000081 ], [ 81.39016934000017, 30.233611807000045 ], [ 81.396314823000182, 30.242375818000141 ], [ 81.391888716000153, 30.250456616000122 ], [ 81.40830318400009, 30.260986420000052 ], [ 81.416489097000181, 30.281585967000183 ], [ 81.399479886000108, 30.281487856000126 ], [ 81.403450957000132, 30.2850775120001 ], [ 81.401802594000117, 30.293014675000052 ], [ 81.423163598000031, 30.305026974000157 ], [ 81.414612875000159, 30.316344655000023 ], [ 81.405268111000055, 30.316037925000046 ], [ 81.396288025000104, 30.323341166000091 ], [ 81.405713404000039, 30.336555678000082 ], [ 81.402438404000122, 30.343994865000184 ], [ 81.405930432000048, 30.353088930000069 ], [ 81.395171699000116, 30.367865001000098 ], [ 81.41999183900009, 30.370500737000043 ], [ 81.429230001000064, 30.383323845000177 ], [ 81.400580468000044, 30.396139405000042 ], [ 81.407937909000168, 30.420992846000047 ], [ 81.427569674000097, 30.421838863000175 ], [ 81.43384598199998, 30.412731504000021 ], [ 81.438516409000158, 30.418611265999971 ], [ 81.444909267000128, 30.415831372000184 ], [ 81.467609807000031, 30.403208023000161 ], [ 81.476099478000037, 30.388560719000054 ], [ 81.489353037000171, 30.381197732000032 ], [ 81.551720261000128, 30.369747164000103 ], [ 81.555532964, 30.37394394800009 ], [ 81.549705321000033, 30.380926202000126 ], [ 81.550672703000146, 30.40257754400011 ], [ 81.559353036000118, 30.407355719000122 ], [ 81.560713882000073, 30.427951916000154 ], [ 81.574165235000066, 30.426576367999985 ], [ 81.606699957000103, 30.41209690300019 ], [ 81.621839998000041, 30.424301160000027 ], [ 81.617818382000166, 30.445826564000072 ] ] ] } }
]
}
