{
"type": "FeatureCollection",
"name": "urban_centres",
"crs": { "type": "name", "properties": { "name": "urn:ogc:def:crs:OGC:1.3:CRS84" } },
"features": [
{ "type": "Feature", "properties": { "pop_grid": 2780695, "pop_2021": 2780695, "pop_2001": 1527011, "pop_2001_ownfp": 1408088, "area_2001": 199.3, "area_km2": 330.7, "density": 8409.0, "lon": 85.3473, "lat": 27.6916, "municipalities": "[array(['Kathmandu', 'Lalitpur', 'Changunarayan', 'Godawari',\n       'Suryabinayak', 'Chandragiri', 'Budhanilkhantha', 'Mahalaxmi',\n       'Kageshwori Manahara', 'Nagarjun', 'Kirtipur', 'Gokarneshwor',\n       'Tokha', 'Tarakeshwor', 'Madhyapur Thimi', 'Bhaktapur'],\n      dtype='<U19')]", "mun_pop2021": "[array([862400, 294098,  88083,  97633, 140085, 136860, 177557, 123116,\n       130433, 115437,  81578, 149366, 133755, 151479, 119756,  79136],\n      dtype=int32)]", "district": "Kathmandu", "name": "Kathmandu", "id": 0, "elev": 1299 }, "geometry": { "type": "Polygon", "coordinates": [ [ [ 85.316816385195835, 27.797269134028028 ], [ 85.316816385195835, 27.779302910528209 ], [ 85.307833273445922, 27.779302910528209 ], [ 85.307833273445922, 27.770319798778299 ], [ 85.28986704994611, 27.770319798778299 ], [ 85.28986704994611, 27.76133668702839 ], [ 85.280883938196197, 27.76133668702839 ], [ 85.280883938196197, 27.734387351778658 ], [ 85.271900826446284, 27.734387351778658 ], [ 85.271900826446284, 27.725404240028748 ], [ 85.253934602946472, 27.725404240028748 ], [ 85.253934602946472, 27.734387351778658 ], [ 85.235968379446646, 27.734387351778658 ], [ 85.235968379446646, 27.716421128278839 ], [ 85.226985267696733, 27.716421128278839 ], [ 85.226985267696733, 27.707438016528926 ], [ 85.209019044196921, 27.707438016528926 ], [ 85.209019044196921, 27.689471793029107 ], [ 85.21800215594682, 27.689471793029107 ], [ 85.21800215594682, 27.680488681279197 ], [ 85.235968379446646, 27.680488681279197 ], [ 85.235968379446646, 27.671505569529288 ], [ 85.244951491196559, 27.671505569529288 ], [ 85.244951491196559, 27.662522457779374 ], [ 85.253934602946472, 27.662522457779374 ], [ 85.253934602946472, 27.653539346029465 ], [ 85.271900826446284, 27.653539346029465 ], [ 85.271900826446284, 27.644556234279555 ], [ 85.28986704994611, 27.644556234279555 ], [ 85.28986704994611, 27.635573122529646 ], [ 85.298850161696024, 27.635573122529646 ], [ 85.298850161696024, 27.626590010779736 ], [ 85.307833273445922, 27.626590010779736 ], [ 85.307833273445922, 27.590657563780095 ], [ 85.316816385195835, 27.590657563780095 ], [ 85.316816385195835, 27.581674452030185 ], [ 85.325799496945749, 27.581674452030185 ], [ 85.325799496945749, 27.590657563780095 ], [ 85.334782608695662, 27.590657563780095 ], [ 85.334782608695662, 27.599640675530004 ], [ 85.388681279195112, 27.599640675530004 ], [ 85.388681279195112, 27.617606899029823 ], [ 85.397664390945025, 27.617606899029823 ], [ 85.397664390945025, 27.626590010779736 ], [ 85.406647502694938, 27.626590010779736 ], [ 85.406647502694938, 27.635573122529646 ], [ 85.415630614444851, 27.635573122529646 ], [ 85.415630614444851, 27.644556234279555 ], [ 85.424613726194764, 27.644556234279555 ], [ 85.424613726194764, 27.653539346029465 ], [ 85.451563061444489, 27.653539346029465 ], [ 85.451563061444489, 27.644556234279555 ], [ 85.469529284944315, 27.644556234279555 ], [ 85.469529284944315, 27.662522457779374 ], [ 85.478512396694214, 27.662522457779374 ], [ 85.478512396694214, 27.671505569529288 ], [ 85.487495508444127, 27.671505569529288 ], [ 85.487495508444127, 27.680488681279197 ], [ 85.469529284944315, 27.680488681279197 ], [ 85.469529284944315, 27.689471793029107 ], [ 85.460546173194402, 27.689471793029107 ], [ 85.460546173194402, 27.698454904779016 ], [ 85.451563061444489, 27.698454904779016 ], [ 85.451563061444489, 27.707438016528926 ], [ 85.433596837944663, 27.707438016528926 ], [ 85.433596837944663, 27.716421128278839 ], [ 85.424613726194764, 27.716421128278839 ], [ 85.424613726194764, 27.725404240028748 ], [ 85.433596837944663, 27.725404240028748 ], [ 85.433596837944663, 27.734387351778658 ], [ 85.451563061444489, 27.734387351778658 ], [ 85.451563061444489, 27.752353575278477 ], [ 85.379698167445213, 27.752353575278477 ], [ 85.379698167445213, 27.76133668702839 ], [ 85.3707150556953, 27.76133668702839 ], [ 85.3707150556953, 27.770319798778299 ], [ 85.379698167445213, 27.770319798778299 ], [ 85.379698167445213, 27.779302910528209 ], [ 85.3707150556953, 27.779302910528209 ], [ 85.3707150556953, 27.788286022278118 ], [ 85.352748832195473, 27.788286022278118 ], [ 85.352748832195473, 27.779302910528209 ], [ 85.343765720445575, 27.779302910528209 ], [ 85.343765720445575, 27.788286022278118 ], [ 85.334782608695662, 27.788286022278118 ], [ 85.334782608695662, 27.797269134028028 ], [ 85.316816385195835, 27.797269134028028 ] ] ] } },
{ "type": "Feature", "properties": { "pop_grid": 390405, "pop_2021": 390405, "pop_2001": 218239, "pop_2001_ownfp": 177918, "area_2001": 33.4, "area_km2": 77.4, "density": 5044.0, "lon": 84.0053, "lat": 28.1993, "municipalities": "[array(['Pokhara'], dtype='<U7')]", "mun_pop2021": "[array([513504], dtype=int32)]", "district": "Kaski", "name": "Pokhara", "id": 1, "elev": 829 }, "geometry": { "type": "Polygon", "coordinates": [ [ [ 83.942400287459577, 28.273374056773267 ], [ 83.942400287459577, 28.264390945023358 ], [ 83.95138339920949, 28.264390945023358 ], [ 83.95138339920949, 28.255407833273448 ], [ 83.969349622709316, 28.255407833273448 ], [ 83.969349622709316, 28.246424721523539 ], [ 83.978332734459229, 28.246424721523539 ], [ 83.978332734459229, 28.228458498023716 ], [ 83.969349622709316, 28.228458498023716 ], [ 83.969349622709316, 28.219475386273807 ], [ 83.95138339920949, 28.219475386273807 ], [ 83.95138339920949, 28.192526051024075 ], [ 83.942400287459577, 28.192526051024075 ], [ 83.942400287459577, 28.183542939274165 ], [ 83.969349622709316, 28.183542939274165 ], [ 83.969349622709316, 28.174559827524256 ], [ 84.014265181458867, 28.174559827524256 ], [ 84.014265181458867, 28.165576715774346 ], [ 84.023248293208781, 28.165576715774346 ], [ 84.023248293208781, 28.156593604024437 ], [ 84.032231404958679, 28.156593604024437 ], [ 84.032231404958679, 28.147610492274524 ], [ 84.059180740208419, 28.147610492274524 ], [ 84.059180740208419, 28.138627380524614 ], [ 84.07714696370823, 28.138627380524614 ], [ 84.07714696370823, 28.147610492274524 ], [ 84.086130075458144, 28.147610492274524 ], [ 84.086130075458144, 28.165576715774346 ], [ 84.068163851958317, 28.165576715774346 ], [ 84.068163851958317, 28.174559827524256 ], [ 84.059180740208419, 28.174559827524256 ], [ 84.059180740208419, 28.183542939274165 ], [ 84.041214516708592, 28.183542939274165 ], [ 84.041214516708592, 28.192526051024075 ], [ 84.032231404958679, 28.192526051024075 ], [ 84.032231404958679, 28.201509162773988 ], [ 84.023248293208781, 28.201509162773988 ], [ 84.023248293208781, 28.219475386273807 ], [ 84.014265181458867, 28.219475386273807 ], [ 84.014265181458867, 28.228458498023716 ], [ 84.005282069708954, 28.228458498023716 ], [ 84.005282069708954, 28.237441609773626 ], [ 83.996298957959041, 28.237441609773626 ], [ 83.996298957959041, 28.246424721523539 ], [ 83.987315846209128, 28.246424721523539 ], [ 83.987315846209128, 28.273374056773267 ], [ 83.942400287459577, 28.273374056773267 ] ] ] } },
{ "type": "Feature", "properties": { "pop_grid": 271999, "pop_2021": 271999, "pop_2001": 107126, "pop_2001_ownfp": 65852, "area_2001": 23.9, "area_km2": 60.1, "density": 4526.0, "lon": 83.4428, "lat": 27.6698, "municipalities": "[array(['Butwal', 'Tilottama', 'Suddhodhan'], dtype='<U10')]", "mun_pop2021": "[array([194335, 149479,  41907], dtype=int32)]", "district": "Rupandehi", "name": "Butwal", "id": 2, "elev": 150 }, "geometry": { "type": "Polygon", "coordinates": [ [ [ 83.457312252964428, 27.716421128278839 ], [ 83.457312252964428, 27.707438016528926 ], [ 83.448329141214529, 27.707438016528926 ], [ 83.448329141214529, 27.698454904779016 ], [ 83.439346029464616, 27.698454904779016 ], [ 83.439346029464616, 27.689471793029107 ], [ 83.394430470715065, 27.689471793029107 ], [ 83.394430470715065, 27.680488681279197 ], [ 83.376464247215239, 27.680488681279197 ], [ 83.376464247215239, 27.671505569529288 ], [ 83.385447358965152, 27.671505569529288 ], [ 83.385447358965152, 27.644556234279555 ], [ 83.412396694214877, 27.644556234279555 ], [ 83.412396694214877, 27.653539346029465 ], [ 83.439346029464616, 27.653539346029465 ], [ 83.439346029464616, 27.644556234279555 ], [ 83.457312252964428, 27.644556234279555 ], [ 83.457312252964428, 27.635573122529646 ], [ 83.466295364714341, 27.635573122529646 ], [ 83.466295364714341, 27.626590010779736 ], [ 83.493244699964066, 27.626590010779736 ], [ 83.493244699964066, 27.635573122529646 ], [ 83.484261588214167, 27.635573122529646 ], [ 83.484261588214167, 27.698454904779016 ], [ 83.475278476464254, 27.698454904779016 ], [ 83.475278476464254, 27.716421128278839 ], [ 83.457312252964428, 27.716421128278839 ] ] ] } },
{ "type": "Feature", "properties": { "pop_grid": 238400, "pop_2021": 238400, "pop_2001": 113834, "pop_2001_ownfp": 51392, "area_2001": 12.4, "area_km2": 56.9, "density": 4190.0, "lon": 87.2988, "lat": 26.6632, "municipalities": "[array(['Itahari', 'Sundarharaicha', 'Belbari'], dtype='<U14')]", "mun_pop2021": "[array([197241, 120213,  81771], dtype=int32)]", "district": "Sunsari", "name": "Itahari", "id": 3, "elev": 118 }, "geometry": { "type": "Polygon", "coordinates": [ [ [ 87.266151634926345, 26.710312612288899 ], [ 87.266151634926345, 26.701329500538989 ], [ 87.257168523176432, 26.701329500538989 ], [ 87.257168523176432, 26.683363277039167 ], [ 87.248185411426519, 26.683363277039167 ], [ 87.248185411426519, 26.674380165289257 ], [ 87.230219187926707, 26.674380165289257 ], [ 87.230219187926707, 26.656413941789438 ], [ 87.257168523176432, 26.656413941789438 ], [ 87.257168523176432, 26.647430830039529 ], [ 87.266151634926345, 26.647430830039529 ], [ 87.266151634926345, 26.629464606539706 ], [ 87.257168523176432, 26.629464606539706 ], [ 87.257168523176432, 26.620481494789797 ], [ 87.275134746676258, 26.620481494789797 ], [ 87.275134746676258, 26.611498383039887 ], [ 87.284117858426157, 26.611498383039887 ], [ 87.284117858426157, 26.620481494789797 ], [ 87.302084081925983, 26.620481494789797 ], [ 87.302084081925983, 26.629464606539706 ], [ 87.29310097017607, 26.629464606539706 ], [ 87.29310097017607, 26.647430830039529 ], [ 87.302084081925983, 26.647430830039529 ], [ 87.302084081925983, 26.656413941789438 ], [ 87.41886453467481, 26.656413941789438 ], [ 87.41886453467481, 26.665397053539348 ], [ 87.400898311174998, 26.665397053539348 ], [ 87.400898311174998, 26.674380165289257 ], [ 87.382932087675172, 26.674380165289257 ], [ 87.382932087675172, 26.683363277039167 ], [ 87.373948975925259, 26.683363277039167 ], [ 87.373948975925259, 26.674380165289257 ], [ 87.36496586417536, 26.674380165289257 ], [ 87.36496586417536, 26.665397053539348 ], [ 87.29310097017607, 26.665397053539348 ], [ 87.29310097017607, 26.674380165289257 ], [ 87.284117858426157, 26.674380165289257 ], [ 87.284117858426157, 26.692346388789076 ], [ 87.29310097017607, 26.692346388789076 ], [ 87.29310097017607, 26.710312612288899 ], [ 87.266151634926345, 26.710312612288899 ] ] ] } },
{ "type": "Feature", "properties": { "pop_grid": 199545, "pop_2021": 199545, "pop_2001": 160485, "pop_2001_ownfp": 159818, "area_2001": 30.3, "area_km2": 31.2, "density": 6396.0, "lon": 87.2804, "lat": 26.4648, "municipalities": "[array(['Biratnagar', 'Katahari'], dtype='<U10')]", "mun_pop2021": "[array([243927,  48510], dtype=int32)]", "district": "Morang", "name": "Biratnagar", "id": 4, "elev": 74 }, "geometry": { "type": "Polygon", "coordinates": [ [ [ 87.284117858426157, 26.512684153790875 ], [ 87.284117858426157, 26.503701042040966 ], [ 87.275134746676258, 26.503701042040966 ], [ 87.275134746676258, 26.494717930291053 ], [ 87.266151634926345, 26.494717930291053 ], [ 87.266151634926345, 26.485734818541143 ], [ 87.257168523176432, 26.485734818541143 ], [ 87.257168523176432, 26.440819259791592 ], [ 87.266151634926345, 26.440819259791592 ], [ 87.266151634926345, 26.431836148041683 ], [ 87.275134746676258, 26.431836148041683 ], [ 87.275134746676258, 26.422853036291773 ], [ 87.284117858426157, 26.422853036291773 ], [ 87.284117858426157, 26.431836148041683 ], [ 87.29310097017607, 26.431836148041683 ], [ 87.29310097017607, 26.440819259791592 ], [ 87.302084081925983, 26.440819259791592 ], [ 87.302084081925983, 26.449802371541502 ], [ 87.311067193675896, 26.449802371541502 ], [ 87.311067193675896, 26.458785483291415 ], [ 87.302084081925983, 26.458785483291415 ], [ 87.302084081925983, 26.476751706791234 ], [ 87.29310097017607, 26.476751706791234 ], [ 87.29310097017607, 26.512684153790875 ], [ 87.284117858426157, 26.512684153790875 ] ] ] } },
{ "type": "Feature", "properties": { "pop_grid": 195938, "pop_2021": 195938, "pop_2001": 124386, "pop_2001_ownfp": 95952, "area_2001": 20.3, "area_km2": 43.3, "density": 4525.0, "lon": 84.423, "lat": 27.685, "municipalities": "[array(['Bharatpur', 'Gaidakot'], dtype='<U9')]", "mun_pop2021": "[array([369268,  79349], dtype=int32)]", "district": "Chitawan", "name": "Bharatpur", "id": 5, "elev": 209 }, "geometry": { "type": "Polygon", "coordinates": [ [ [ 84.382572763205175, 27.716421128278839 ], [ 84.382572763205175, 27.698454904779016 ], [ 84.391555874955088, 27.698454904779016 ], [ 84.391555874955088, 27.671505569529288 ], [ 84.400538986705001, 27.671505569529288 ], [ 84.400538986705001, 27.653539346029465 ], [ 84.418505210204813, 27.653539346029465 ], [ 84.418505210204813, 27.644556234279555 ], [ 84.427488321954726, 27.644556234279555 ], [ 84.427488321954726, 27.653539346029465 ], [ 84.454437657204465, 27.653539346029465 ], [ 84.454437657204465, 27.689471793029107 ], [ 84.463420768954364, 27.689471793029107 ], [ 84.463420768954364, 27.707438016528926 ], [ 84.427488321954726, 27.707438016528926 ], [ 84.427488321954726, 27.716421128278839 ], [ 84.382572763205175, 27.716421128278839 ] ] ] } },
{ "type": "Feature", "properties": { "pop_grid": 173398, "pop_2021": 173398, "pop_2001": 129485, "pop_2001_ownfp": 72139, "area_2001": 21.3, "area_km2": 48.8, "density": 3553.0, "lon": 84.8833, "lat": 27.0385, "municipalities": "[array(['Birgunj', 'Parawanipur'], dtype='<U11')]", "mun_pop2021": "[array([272382,  24745], dtype=int32)]", "district": "Parsa", "name": "Birgunj", "id": 6, "elev": 83 }, "geometry": { "type": "Polygon", "coordinates": [ [ [ 84.912576356449875, 27.087603305785127 ], [ 84.912576356449875, 27.078620194035217 ], [ 84.88562702120015, 27.078620194035217 ], [ 84.88562702120015, 27.069637082285304 ], [ 84.876643909450237, 27.069637082285304 ], [ 84.876643909450237, 27.051670858785485 ], [ 84.867660797700324, 27.051670858785485 ], [ 84.867660797700324, 27.042687747035576 ], [ 84.858677685950425, 27.042687747035576 ], [ 84.858677685950425, 27.051670858785485 ], [ 84.849694574200512, 27.051670858785485 ], [ 84.849694574200512, 27.033704635285666 ], [ 84.840711462450599, 27.033704635285666 ], [ 84.840711462450599, 27.024721523535753 ], [ 84.831728350700686, 27.024721523535753 ], [ 84.831728350700686, 27.015738411785843 ], [ 84.840711462450599, 27.015738411785843 ], [ 84.840711462450599, 27.006755300035934 ], [ 84.849694574200512, 27.006755300035934 ], [ 84.849694574200512, 26.997772188286024 ], [ 84.88562702120015, 26.997772188286024 ], [ 84.88562702120015, 27.006755300035934 ], [ 84.894610132950064, 27.006755300035934 ], [ 84.894610132950064, 27.024721523535753 ], [ 84.903593244699977, 27.024721523535753 ], [ 84.903593244699977, 27.033704635285666 ], [ 84.921559468199789, 27.033704635285666 ], [ 84.921559468199789, 27.069637082285304 ], [ 84.930542579949702, 27.069637082285304 ], [ 84.930542579949702, 27.078620194035217 ], [ 84.921559468199789, 27.078620194035217 ], [ 84.921559468199789, 27.087603305785127 ], [ 84.912576356449875, 27.087603305785127 ] ] ] } },
{ "type": "Feature", "properties": { "pop_grid": 123075, "pop_2021": 123075, "pop_2001": 93473, "pop_2001_ownfp": 85282, "area_2001": 24.0, "area_km2": 37.3, "density": 3300.0, "lon": 87.2822, "lat": 26.8162, "municipalities": "[array(['Dharan'], dtype='<U6')]", "mun_pop2021": "[array([166531], dtype=int32)]", "district": "Sunsari", "name": "Dharan", "id": 7, "elev": 387 }, "geometry": { "type": "Polygon", "coordinates": [ [ [ 87.248185411426519, 26.854042400287462 ], [ 87.248185411426519, 26.845059288537552 ], [ 87.230219187926707, 26.845059288537552 ], [ 87.230219187926707, 26.836076176787643 ], [ 87.23920229967662, 26.836076176787643 ], [ 87.23920229967662, 26.82709306503773 ], [ 87.248185411426519, 26.82709306503773 ], [ 87.248185411426519, 26.81810995328782 ], [ 87.257168523176432, 26.81810995328782 ], [ 87.257168523176432, 26.80912684153791 ], [ 87.275134746676258, 26.80912684153791 ], [ 87.275134746676258, 26.800143729788001 ], [ 87.29310097017607, 26.800143729788001 ], [ 87.29310097017607, 26.791160618038091 ], [ 87.302084081925983, 26.791160618038091 ], [ 87.302084081925983, 26.764211282788359 ], [ 87.329033417175708, 26.764211282788359 ], [ 87.329033417175708, 26.773194394538269 ], [ 87.320050305425809, 26.773194394538269 ], [ 87.320050305425809, 26.800143729788001 ], [ 87.311067193675896, 26.800143729788001 ], [ 87.311067193675896, 26.81810995328782 ], [ 87.302084081925983, 26.81810995328782 ], [ 87.302084081925983, 26.82709306503773 ], [ 87.29310097017607, 26.82709306503773 ], [ 87.29310097017607, 26.845059288537552 ], [ 87.275134746676258, 26.845059288537552 ], [ 87.275134746676258, 26.854042400287462 ], [ 87.248185411426519, 26.854042400287462 ] ] ] } },
{ "type": "Feature", "properties": { "pop_grid": 119685, "pop_2021": 119685, "pop_2001": 79246, "pop_2001_ownfp": 76835, "area_2001": 24.8, "area_km2": 28.3, "density": 4229.0, "lon": 81.6343, "lat": 28.0586, "municipalities": "[array(['Nepalganj', 'Janaki'], dtype='<U9')]", "mun_pop2021": "[array([164444,  46141], dtype=int32)]", "district": "Banke", "name": "Nepalganj", "id": 8, "elev": 153 }, "geometry": { "type": "Polygon", "coordinates": [ [ [ 81.642723679482572, 28.093711821775063 ], [ 81.642723679482572, 28.084728710025153 ], [ 81.615774344232847, 28.084728710025153 ], [ 81.615774344232847, 28.075745598275244 ], [ 81.606791232482934, 28.075745598275244 ], [ 81.606791232482934, 28.057779374775425 ], [ 81.597808120733021, 28.057779374775425 ], [ 81.597808120733021, 28.048796263025515 ], [ 81.606791232482934, 28.048796263025515 ], [ 81.606791232482934, 28.039813151275602 ], [ 81.642723679482572, 28.039813151275602 ], [ 81.642723679482572, 28.030830039525693 ], [ 81.651706791232485, 28.030830039525693 ], [ 81.651706791232485, 28.021846927775783 ], [ 81.660689902982398, 28.021846927775783 ], [ 81.660689902982398, 28.066762486525334 ], [ 81.651706791232485, 28.066762486525334 ], [ 81.651706791232485, 28.093711821775063 ], [ 81.642723679482572, 28.093711821775063 ] ] ] } },
{ "type": "Feature", "properties": { "pop_grid": 108040, "pop_2021": 108040, "pop_2001": 36974, "pop_2001_ownfp": 0, "area_2001": 0.0, "area_km2": 38.2, "density": 2828.0, "lon": 85.9257, "lat": 26.7271, "municipalities": "[array(['Janakpurdham'], dtype='<U12')]", "mun_pop2021": "[array([194556], dtype=int32)]", "district": "Dhanusa", "name": "Janakpur", "id": 9, "elev": 81 }, "geometry": { "type": "Polygon", "coordinates": [ [ [ 85.936651095939638, 26.764211282788359 ], [ 85.936651095939638, 26.75522817103845 ], [ 85.918684872439826, 26.75522817103845 ], [ 85.918684872439826, 26.74624505928854 ], [ 85.909701760689913, 26.74624505928854 ], [ 85.909701760689913, 26.737261947538627 ], [ 85.891735537190087, 26.737261947538627 ], [ 85.891735537190087, 26.710312612288899 ], [ 85.882752425440174, 26.710312612288899 ], [ 85.882752425440174, 26.701329500538989 ], [ 85.891735537190087, 26.701329500538989 ], [ 85.891735537190087, 26.692346388789076 ], [ 85.90071864894, 26.692346388789076 ], [ 85.90071864894, 26.683363277039167 ], [ 85.909701760689913, 26.683363277039167 ], [ 85.909701760689913, 26.692346388789076 ], [ 85.918684872439826, 26.692346388789076 ], [ 85.918684872439826, 26.701329500538989 ], [ 85.927667984189725, 26.701329500538989 ], [ 85.927667984189725, 26.710312612288899 ], [ 85.936651095939638, 26.710312612288899 ], [ 85.936651095939638, 26.719295724038808 ], [ 85.954617319439464, 26.719295724038808 ], [ 85.954617319439464, 26.728278835788718 ], [ 85.963600431189377, 26.728278835788718 ], [ 85.963600431189377, 26.737261947538627 ], [ 85.972583542939276, 26.737261947538627 ], [ 85.972583542939276, 26.75522817103845 ], [ 85.945634207689551, 26.75522817103845 ], [ 85.945634207689551, 26.764211282788359 ], [ 85.936651095939638, 26.764211282788359 ] ] ] } },
{ "type": "Feature", "properties": { "pop_grid": 102699, "pop_2021": 102699, "pop_2001": 46456, "pop_2001_ownfp": 0, "area_2001": 0.0, "area_km2": 23.8, "density": 4315.0, "lon": 81.6149, "lat": 28.5926, "municipalities": "[array(['Birendranagar'], dtype='<U13')]", "mun_pop2021": "[array([153863], dtype=int32)]", "district": "Surkhet", "name": "Birendranagar", "id": 10, "elev": 674 }, "geometry": { "type": "Polygon", "coordinates": [ [ [ 81.579841897233209, 28.614732303269854 ], [ 81.579841897233209, 28.605749191519944 ], [ 81.570858785483296, 28.605749191519944 ], [ 81.570858785483296, 28.596766079770035 ], [ 81.588825008983122, 28.596766079770035 ], [ 81.588825008983122, 28.587782968020122 ], [ 81.597808120733021, 28.587782968020122 ], [ 81.597808120733021, 28.578799856270212 ], [ 81.606791232482934, 28.578799856270212 ], [ 81.606791232482934, 28.569816744520303 ], [ 81.642723679482572, 28.569816744520303 ], [ 81.642723679482572, 28.578799856270212 ], [ 81.651706791232485, 28.578799856270212 ], [ 81.651706791232485, 28.587782968020122 ], [ 81.642723679482572, 28.587782968020122 ], [ 81.642723679482572, 28.596766079770035 ], [ 81.633740567732673, 28.596766079770035 ], [ 81.633740567732673, 28.614732303269854 ], [ 81.606791232482934, 28.614732303269854 ], [ 81.606791232482934, 28.605749191519944 ], [ 81.588825008983122, 28.605749191519944 ], [ 81.588825008983122, 28.614732303269854 ], [ 81.579841897233209, 28.614732303269854 ] ] ] } },
{ "type": "Feature", "properties": { "pop_grid": 94091, "pop_2021": 94091, "pop_2001": 65975, "pop_2001_ownfp": 0, "area_2001": 0.0, "area_km2": 10.6, "density": 8877.0, "lon": 83.2739, "lat": 27.4911, "municipalities": "[array(['Lumbini Sanskritik', 'Lumbini Sanskritik'], dtype='<U18')]", "mun_pop2021": "[array([87383, 87383], dtype=int32)]", "district": "Rupandehi", "name": "Lumbini Sanskritik", "id": 11, "elev": 97 }, "geometry": { "type": "Polygon", "coordinates": [ [ [ 83.259683794466412, 27.509809558030902 ], [ 83.259683794466412, 27.482860222781174 ], [ 83.268666906216325, 27.482860222781174 ], [ 83.268666906216325, 27.464893999281351 ], [ 83.277650017966224, 27.464893999281351 ], [ 83.277650017966224, 27.473877111031264 ], [ 83.286633129716137, 27.473877111031264 ], [ 83.286633129716137, 27.509809558030902 ], [ 83.259683794466412, 27.509809558030902 ] ] ] } },
{ "type": "Feature", "properties": { "pop_grid": 88113, "pop_2021": 88113, "pop_2001": 50520, "pop_2001_ownfp": 0, "area_2001": 0.0, "area_km2": 16.0, "density": 5507.0, "lon": 87.9838, "lat": 26.6414, "municipalities": "[array(['Birtamod', 'Arjundhara'], dtype='<U10')]", "mun_pop2021": "[array([116192,  84018], dtype=int32)]", "district": "Jhapa", "name": "Birtamod", "id": 12, "elev": 129 }, "geometry": { "type": "Polygon", "coordinates": [ [ [ 87.993783686669062, 26.665397053539348 ], [ 87.993783686669062, 26.656413941789438 ], [ 87.984800574919163, 26.656413941789438 ], [ 87.984800574919163, 26.647430830039529 ], [ 87.939885016169612, 26.647430830039529 ], [ 87.939885016169612, 26.638447718289616 ], [ 87.966834351419337, 26.638447718289616 ], [ 87.966834351419337, 26.629464606539706 ], [ 87.97581746316925, 26.629464606539706 ], [ 87.97581746316925, 26.620481494789797 ], [ 87.993783686669062, 26.620481494789797 ], [ 87.993783686669062, 26.629464606539706 ], [ 88.002766798418975, 26.629464606539706 ], [ 88.002766798418975, 26.638447718289616 ], [ 88.011749910168888, 26.638447718289616 ], [ 88.011749910168888, 26.656413941789438 ], [ 88.002766798418975, 26.656413941789438 ], [ 88.002766798418975, 26.665397053539348 ], [ 87.993783686669062, 26.665397053539348 ] ] ] } },
{ "type": "Feature", "properties": { "pop_grid": 82982, "pop_2021": 82982, "pop_2001": 63678, "pop_2001_ownfp": 62327, "area_2001": 15.0, "area_km2": 16.8, "density": 4939.0, "lon": 85.0291, "lat": 27.416, "municipalities": "[array(['Hetauda'], dtype='<U7')]", "mun_pop2021": "[array([193576], dtype=int32)]", "district": "Makwanpur", "name": "Hetauda", "id": 13, "elev": 442 }, "geometry": { "type": "Polygon", "coordinates": [ [ [ 85.029356809198717, 27.446927775781532 ], [ 85.029356809198717, 27.437944664031622 ], [ 85.020373697448804, 27.437944664031622 ], [ 85.020373697448804, 27.428961552281713 ], [ 85.011390585698891, 27.428961552281713 ], [ 85.011390585698891, 27.4199784405318 ], [ 85.002407473948978, 27.4199784405318 ], [ 85.002407473948978, 27.41099532878189 ], [ 85.011390585698891, 27.41099532878189 ], [ 85.011390585698891, 27.402012217031981 ], [ 85.020373697448804, 27.402012217031981 ], [ 85.020373697448804, 27.393029105282071 ], [ 85.047323032698529, 27.393029105282071 ], [ 85.047323032698529, 27.428961552281713 ], [ 85.038339920948616, 27.428961552281713 ], [ 85.038339920948616, 27.446927775781532 ], [ 85.029356809198717, 27.446927775781532 ] ] ] } },
{ "type": "Feature", "properties": { "pop_grid": 76074, "pop_2021": 76074, "pop_2001": 34563, "pop_2001_ownfp": 0, "area_2001": 0.0, "area_km2": 15.1, "density": 5038.0, "lon": 87.7002, "lat": 26.6599, "municipalities": "[array(['Damak', 'Kamal'], dtype='<U5')]", "mun_pop2021": "[array([107227,  53894], dtype=int32)]", "district": "Jhapa", "name": "Damak", "id": 14, "elev": 132 }, "geometry": { "type": "Polygon", "coordinates": [ [ [ 87.69734099892203, 26.683363277039167 ], [ 87.69734099892203, 26.674380165289257 ], [ 87.688357887172117, 26.674380165289257 ], [ 87.688357887172117, 26.665397053539348 ], [ 87.670391663672305, 26.665397053539348 ], [ 87.670391663672305, 26.647430830039529 ], [ 87.733273445921668, 26.647430830039529 ], [ 87.733273445921668, 26.656413941789438 ], [ 87.724290334171769, 26.656413941789438 ], [ 87.724290334171769, 26.665397053539348 ], [ 87.715307222421856, 26.665397053539348 ], [ 87.715307222421856, 26.674380165289257 ], [ 87.706324110671943, 26.674380165289257 ], [ 87.706324110671943, 26.683363277039167 ], [ 87.69734099892203, 26.683363277039167 ] ] ] } },
{ "type": "Feature", "properties": { "pop_grid": 74408, "pop_2021": 74408, "pop_2001": 47519, "pop_2001_ownfp": 0, "area_2001": 0.0, "area_km2": 27.4, "density": 2716.0, "lon": 82.2789, "lat": 28.1066, "municipalities": "[array(['Tulsipur'], dtype='<U8')]", "mun_pop2021": "[array([179755], dtype=int32)]", "district": "Dang", "name": "Tulsipur", "id": 15, "elev": 621 }, "geometry": { "type": "Polygon", "coordinates": [ [ [ 82.289507725476113, 28.147610492274524 ], [ 82.289507725476113, 28.138627380524614 ], [ 82.2805246137262, 28.138627380524614 ], [ 82.2805246137262, 28.120661157024795 ], [ 82.271541501976287, 28.120661157024795 ], [ 82.271541501976287, 28.111678045274886 ], [ 82.253575278476475, 28.111678045274886 ], [ 82.253575278476475, 28.102694933524972 ], [ 82.244592166726562, 28.102694933524972 ], [ 82.244592166726562, 28.084728710025153 ], [ 82.253575278476475, 28.084728710025153 ], [ 82.253575278476475, 28.066762486525334 ], [ 82.2805246137262, 28.066762486525334 ], [ 82.2805246137262, 28.075745598275244 ], [ 82.271541501976287, 28.075745598275244 ], [ 82.271541501976287, 28.093711821775063 ], [ 82.2805246137262, 28.093711821775063 ], [ 82.2805246137262, 28.102694933524972 ], [ 82.289507725476113, 28.102694933524972 ], [ 82.289507725476113, 28.093711821775063 ], [ 82.298490837226026, 28.093711821775063 ], [ 82.298490837226026, 28.102694933524972 ], [ 82.307473948975925, 28.102694933524972 ], [ 82.307473948975925, 28.147610492274524 ], [ 82.289507725476113, 28.147610492274524 ] ] ] } },
{ "type": "Feature", "properties": { "pop_grid": 74338, "pop_2021": 74338, "pop_2001": 46604, "pop_2001_ownfp": 0, "area_2001": 0.0, "area_km2": 14.2, "density": 5235.0, "lon": 83.4506, "lat": 27.5137, "municipalities": "[array(['Siddharthanagar', 'Mayadevi', 'Om Satiya'], dtype='<U15')]", "mun_pop2021": "[array([74436, 56170, 41141], dtype=int32)]", "district": "Rupandehi", "name": "Siddharthanagar", "id": 16, "elev": 109 }, "geometry": { "type": "Polygon", "coordinates": [ [ [ 83.439346029464616, 27.536758893280634 ], [ 83.439346029464616, 27.527775781530725 ], [ 83.430362917714703, 27.527775781530725 ], [ 83.430362917714703, 27.500826446280993 ], [ 83.439346029464616, 27.500826446280993 ], [ 83.439346029464616, 27.491843334531083 ], [ 83.448329141214529, 27.491843334531083 ], [ 83.448329141214529, 27.500826446280993 ], [ 83.484261588214167, 27.500826446280993 ], [ 83.484261588214167, 27.509809558030902 ], [ 83.466295364714341, 27.509809558030902 ], [ 83.466295364714341, 27.518792669780815 ], [ 83.457312252964428, 27.518792669780815 ], [ 83.457312252964428, 27.536758893280634 ], [ 83.439346029464616, 27.536758893280634 ] ] ] } },
{ "type": "Feature", "properties": { "pop_grid": 71809, "pop_2021": 71809, "pop_2001": 39724, "pop_2001_ownfp": 0, "area_2001": 0.0, "area_km2": 12.5, "density": 5745.0, "lon": 87.2771, "lat": 26.5691, "municipalities": "[array(['Duhabi', 'Budhiganga'], dtype='<U10')]", "mun_pop2021": "[array([66074, 51497], dtype=int32)]", "district": "Sunsari", "name": "Duhabi", "id": 17, "elev": 88 }, "geometry": { "type": "Polygon", "coordinates": [ [ [ 87.266151634926345, 26.593532159540068 ], [ 87.266151634926345, 26.575565936040245 ], [ 87.257168523176432, 26.575565936040245 ], [ 87.257168523176432, 26.566582824290336 ], [ 87.266151634926345, 26.566582824290336 ], [ 87.266151634926345, 26.548616600790517 ], [ 87.29310097017607, 26.548616600790517 ], [ 87.29310097017607, 26.575565936040245 ], [ 87.284117858426157, 26.575565936040245 ], [ 87.284117858426157, 26.593532159540068 ], [ 87.266151634926345, 26.593532159540068 ] ] ] } },
{ "type": "Feature", "properties": { "pop_grid": 71049, "pop_2021": 71049, "pop_2001": 30385, "pop_2001_ownfp": 0, "area_2001": 0.0, "area_km2": 15.0, "density": 4737.0, "lon": 81.6821, "lat": 28.2023, "municipalities": "[array(['Kohalpur', 'Baijanath'], dtype='<U9')]", "mun_pop2021": "[array([101667,  69472], dtype=int32)]", "district": "Banke", "name": "Kohalpur", "id": 18, "elev": 171 }, "geometry": { "type": "Polygon", "coordinates": [ [ [ 81.669673014732311, 28.237441609773626 ], [ 81.669673014732311, 28.174559827524256 ], [ 81.687639238232123, 28.174559827524256 ], [ 81.687639238232123, 28.183542939274165 ], [ 81.696622349982036, 28.183542939274165 ], [ 81.696622349982036, 28.192526051024075 ], [ 81.705605461731949, 28.192526051024075 ], [ 81.705605461731949, 28.201509162773988 ], [ 81.696622349982036, 28.201509162773988 ], [ 81.696622349982036, 28.210492274523897 ], [ 81.687639238232123, 28.210492274523897 ], [ 81.687639238232123, 28.228458498023716 ], [ 81.678656126482224, 28.228458498023716 ], [ 81.678656126482224, 28.237441609773626 ], [ 81.669673014732311, 28.237441609773626 ] ] ] } },
{ "type": "Feature", "properties": { "pop_grid": 60266, "pop_2021": 60266, "pop_2001": 35429, "pop_2001_ownfp": 0, "area_2001": 0.0, "area_km2": 15.9, "density": 3790.0, "lon": 80.188, "lat": 28.9651, "municipalities": "[array(['Bhimdatta', 'Bedkot'], dtype='<U9')]", "mun_pop2021": "[array([122320,  57680], dtype=int32)]", "district": "Kanchanpur", "name": "Mahendranagar (Bhimdatta)", "id": 19, "elev": 220 }, "geometry": { "type": "Polygon", "coordinates": [ [ [ 80.160510240747399, 28.983039885016172 ], [ 80.160510240747399, 28.947107438016531 ], [ 80.169493352497312, 28.947107438016531 ], [ 80.169493352497312, 28.95609054976644 ], [ 80.187459575997124, 28.95609054976644 ], [ 80.187459575997124, 28.947107438016531 ], [ 80.196442687747037, 28.947107438016531 ], [ 80.196442687747037, 28.95609054976644 ], [ 80.223392022996777, 28.95609054976644 ], [ 80.223392022996777, 28.974056773266263 ], [ 80.178476464247225, 28.974056773266263 ], [ 80.178476464247225, 28.983039885016172 ], [ 80.160510240747399, 28.983039885016172 ] ] ] } }
]
}
