{
"type": "FeatureCollection",
"name": "urban_centres_2001",
"crs": { "type": "name", "properties": { "name": "urn:ogc:def:crs:OGC:1.3:CRS84" } },
"features": [
{ "type": "Feature", "properties": { "pop_grid": 177918, "pop_own": 177918, "area_own": 33.4 }, "geometry": { "type": "Polygon", "coordinates": [ [ [ 83.969349622709316, 28.273374056773267 ], [ 83.969349622709316, 28.255407833273448 ], [ 83.978332734459229, 28.255407833273448 ], [ 83.978332734459229, 28.228458498023716 ], [ 83.969349622709316, 28.228458498023716 ], [ 83.969349622709316, 28.219475386273807 ], [ 83.95138339920949, 28.219475386273807 ], [ 83.95138339920949, 28.183542939274165 ], [ 83.978332734459229, 28.183542939274165 ], [ 83.978332734459229, 28.192526051024075 ], [ 84.005282069708954, 28.192526051024075 ], [ 84.005282069708954, 28.201509162773988 ], [ 84.014265181458867, 28.201509162773988 ], [ 84.014265181458867, 28.210492274523897 ], [ 84.023248293208781, 28.210492274523897 ], [ 84.023248293208781, 28.219475386273807 ], [ 84.014265181458867, 28.219475386273807 ], [ 84.014265181458867, 28.228458498023716 ], [ 84.005282069708954, 28.228458498023716 ], [ 84.005282069708954, 28.237441609773626 ], [ 83.996298957959041, 28.237441609773626 ], [ 83.996298957959041, 28.246424721523539 ], [ 83.987315846209128, 28.246424721523539 ], [ 83.987315846209128, 28.264390945023358 ], [ 83.978332734459229, 28.264390945023358 ], [ 83.978332734459229, 28.273374056773267 ], [ 83.969349622709316, 28.273374056773267 ] ] ] } },
{ "type": "Feature", "properties": { "pop_grid": 76835, "pop_own": 76835, "area_own": 24.8 }, "geometry": { "type": "Polygon", "coordinates": [ [ [ 81.615774344232847, 28.084728710025153 ], [ 81.615774344232847, 28.075745598275244 ], [ 81.606791232482934, 28.075745598275244 ], [ 81.606791232482934, 28.057779374775425 ], [ 81.597808120733021, 28.057779374775425 ], [ 81.597808120733021, 28.048796263025515 ], [ 81.606791232482934, 28.048796263025515 ], [ 81.606791232482934, 28.039813151275602 ], [ 81.642723679482572, 28.039813151275602 ], [ 81.642723679482572, 28.030830039525693 ], [ 81.651706791232485, 28.030830039525693 ], [ 81.651706791232485, 28.048796263025515 ], [ 81.660689902982398, 28.048796263025515 ], [ 81.660689902982398, 28.066762486525334 ], [ 81.651706791232485, 28.066762486525334 ], [ 81.651706791232485, 28.084728710025153 ], [ 81.615774344232847, 28.084728710025153 ] ] ] } },
{ "type": "Feature", "properties": { "pop_grid": 1408088, "pop_own": 1408088, "area_own": 199.3 }, "geometry": { "type": "Polygon", "coordinates": [ [ [ 85.298850161696024, 27.770319798778299 ], [ 85.298850161696024, 27.752353575278477 ], [ 85.28986704994611, 27.752353575278477 ], [ 85.28986704994611, 27.734387351778658 ], [ 85.280883938196197, 27.734387351778658 ], [ 85.280883938196197, 27.725404240028748 ], [ 85.271900826446284, 27.725404240028748 ], [ 85.271900826446284, 27.707438016528926 ], [ 85.262917714696371, 27.707438016528926 ], [ 85.262917714696371, 27.698454904779016 ], [ 85.244951491196559, 27.698454904779016 ], [ 85.244951491196559, 27.707438016528926 ], [ 85.226985267696733, 27.707438016528926 ], [ 85.226985267696733, 27.698454904779016 ], [ 85.209019044196921, 27.698454904779016 ], [ 85.209019044196921, 27.689471793029107 ], [ 85.226985267696733, 27.689471793029107 ], [ 85.226985267696733, 27.680488681279197 ], [ 85.244951491196559, 27.680488681279197 ], [ 85.244951491196559, 27.662522457779374 ], [ 85.262917714696371, 27.662522457779374 ], [ 85.262917714696371, 27.653539346029465 ], [ 85.28986704994611, 27.653539346029465 ], [ 85.28986704994611, 27.644556234279555 ], [ 85.298850161696024, 27.644556234279555 ], [ 85.298850161696024, 27.626590010779736 ], [ 85.307833273445922, 27.626590010779736 ], [ 85.307833273445922, 27.617606899029823 ], [ 85.316816385195835, 27.617606899029823 ], [ 85.316816385195835, 27.590657563780095 ], [ 85.325799496945749, 27.590657563780095 ], [ 85.325799496945749, 27.599640675530004 ], [ 85.334782608695662, 27.599640675530004 ], [ 85.334782608695662, 27.626590010779736 ], [ 85.343765720445575, 27.626590010779736 ], [ 85.343765720445575, 27.635573122529646 ], [ 85.352748832195473, 27.635573122529646 ], [ 85.352748832195473, 27.644556234279555 ], [ 85.361731943945387, 27.644556234279555 ], [ 85.361731943945387, 27.653539346029465 ], [ 85.406647502694938, 27.653539346029465 ], [ 85.406647502694938, 27.662522457779374 ], [ 85.451563061444489, 27.662522457779374 ], [ 85.451563061444489, 27.689471793029107 ], [ 85.442579949694576, 27.689471793029107 ], [ 85.442579949694576, 27.680488681279197 ], [ 85.415630614444851, 27.680488681279197 ], [ 85.415630614444851, 27.689471793029107 ], [ 85.406647502694938, 27.689471793029107 ], [ 85.406647502694938, 27.698454904779016 ], [ 85.397664390945025, 27.698454904779016 ], [ 85.397664390945025, 27.743370463528567 ], [ 85.3707150556953, 27.743370463528567 ], [ 85.3707150556953, 27.752353575278477 ], [ 85.361731943945387, 27.752353575278477 ], [ 85.361731943945387, 27.770319798778299 ], [ 85.298850161696024, 27.770319798778299 ] ] ] } },
{ "type": "Feature", "properties": { "pop_grid": 65852, "pop_own": 65852, "area_own": 23.9 }, "geometry": { "type": "Polygon", "coordinates": [ [ [ 83.457312252964428, 27.716421128278839 ], [ 83.457312252964428, 27.698454904779016 ], [ 83.448329141214529, 27.698454904779016 ], [ 83.448329141214529, 27.689471793029107 ], [ 83.42137980596479, 27.689471793029107 ], [ 83.42137980596479, 27.680488681279197 ], [ 83.430362917714703, 27.680488681279197 ], [ 83.430362917714703, 27.671505569529288 ], [ 83.439346029464616, 27.671505569529288 ], [ 83.439346029464616, 27.653539346029465 ], [ 83.457312252964428, 27.653539346029465 ], [ 83.457312252964428, 27.644556234279555 ], [ 83.466295364714341, 27.644556234279555 ], [ 83.466295364714341, 27.635573122529646 ], [ 83.475278476464254, 27.635573122529646 ], [ 83.475278476464254, 27.662522457779374 ], [ 83.466295364714341, 27.662522457779374 ], [ 83.466295364714341, 27.680488681279197 ], [ 83.475278476464254, 27.680488681279197 ], [ 83.475278476464254, 27.689471793029107 ], [ 83.484261588214167, 27.689471793029107 ], [ 83.484261588214167, 27.698454904779016 ], [ 83.475278476464254, 27.698454904779016 ], [ 83.475278476464254, 27.707438016528926 ], [ 83.466295364714341, 27.707438016528926 ], [ 83.466295364714341, 27.716421128278839 ], [ 83.457312252964428, 27.716421128278839 ] ] ] } },
{ "type": "Feature", "properties": { "pop_grid": 95952, "pop_own": 95952, "area_own": 20.3 }, "geometry": { "type": "Polygon", "coordinates": [ [ [ 84.427488321954726, 27.707438016528926 ], [ 84.427488321954726, 27.698454904779016 ], [ 84.418505210204813, 27.698454904779016 ], [ 84.418505210204813, 27.689471793029107 ], [ 84.400538986705001, 27.689471793029107 ], [ 84.400538986705001, 27.680488681279197 ], [ 84.409522098454914, 27.680488681279197 ], [ 84.409522098454914, 27.671505569529288 ], [ 84.418505210204813, 27.671505569529288 ], [ 84.418505210204813, 27.653539346029465 ], [ 84.445454545454552, 27.653539346029465 ], [ 84.445454545454552, 27.662522457779374 ], [ 84.454437657204465, 27.662522457779374 ], [ 84.454437657204465, 27.671505569529288 ], [ 84.445454545454552, 27.671505569529288 ], [ 84.445454545454552, 27.689471793029107 ], [ 84.454437657204465, 27.689471793029107 ], [ 84.454437657204465, 27.707438016528926 ], [ 84.427488321954726, 27.707438016528926 ] ] ] } },
{ "type": "Feature", "properties": { "pop_grid": 62327, "pop_own": 62327, "area_own": 15.0 }, "geometry": { "type": "Polygon", "coordinates": [ [ [ 85.029356809198717, 27.446927775781532 ], [ 85.029356809198717, 27.437944664031622 ], [ 85.020373697448804, 27.437944664031622 ], [ 85.020373697448804, 27.428961552281713 ], [ 85.011390585698891, 27.428961552281713 ], [ 85.011390585698891, 27.4199784405318 ], [ 85.002407473948978, 27.4199784405318 ], [ 85.002407473948978, 27.41099532878189 ], [ 85.011390585698891, 27.41099532878189 ], [ 85.011390585698891, 27.402012217031981 ], [ 85.020373697448804, 27.402012217031981 ], [ 85.020373697448804, 27.393029105282071 ], [ 85.038339920948616, 27.393029105282071 ], [ 85.038339920948616, 27.41099532878189 ], [ 85.047323032698529, 27.41099532878189 ], [ 85.047323032698529, 27.428961552281713 ], [ 85.038339920948616, 27.428961552281713 ], [ 85.038339920948616, 27.446927775781532 ], [ 85.029356809198717, 27.446927775781532 ] ] ] } },
{ "type": "Feature", "properties": { "pop_grid": 72139, "pop_own": 72139, "area_own": 21.3 }, "geometry": { "type": "Polygon", "coordinates": [ [ [ 84.849694574200512, 27.051670858785485 ], [ 84.849694574200512, 27.033704635285666 ], [ 84.840711462450599, 27.033704635285666 ], [ 84.840711462450599, 27.024721523535753 ], [ 84.849694574200512, 27.024721523535753 ], [ 84.849694574200512, 26.997772188286024 ], [ 84.876643909450237, 26.997772188286024 ], [ 84.876643909450237, 27.006755300035934 ], [ 84.88562702120015, 27.006755300035934 ], [ 84.88562702120015, 27.024721523535753 ], [ 84.894610132950064, 27.024721523535753 ], [ 84.894610132950064, 27.033704635285666 ], [ 84.88562702120015, 27.033704635285666 ], [ 84.88562702120015, 27.042687747035576 ], [ 84.876643909450237, 27.042687747035576 ], [ 84.876643909450237, 27.051670858785485 ], [ 84.849694574200512, 27.051670858785485 ] ] ] } },
{ "type": "Feature", "properties": { "pop_grid": 85282, "pop_own": 85282, "area_own": 24.0 }, "geometry": { "type": "Polygon", "coordinates": [ [ [ 87.275134746676258, 26.845059288537552 ], [ 87.275134746676258, 26.836076176787643 ], [ 87.266151634926345, 26.836076176787643 ], [ 87.266151634926345, 26.82709306503773 ], [ 87.248185411426519, 26.82709306503773 ], [ 87.248185411426519, 26.81810995328782 ], [ 87.266151634926345, 26.81810995328782 ], [ 87.266151634926345, 26.80912684153791 ], [ 87.275134746676258, 26.80912684153791 ], [ 87.275134746676258, 26.800143729788001 ], [ 87.302084081925983, 26.800143729788001 ], [ 87.302084081925983, 26.791160618038091 ], [ 87.311067193675896, 26.791160618038091 ], [ 87.311067193675896, 26.773194394538269 ], [ 87.302084081925983, 26.773194394538269 ], [ 87.302084081925983, 26.764211282788359 ], [ 87.329033417175708, 26.764211282788359 ], [ 87.329033417175708, 26.773194394538269 ], [ 87.320050305425809, 26.773194394538269 ], [ 87.320050305425809, 26.800143729788001 ], [ 87.311067193675896, 26.800143729788001 ], [ 87.311067193675896, 26.81810995328782 ], [ 87.302084081925983, 26.81810995328782 ], [ 87.302084081925983, 26.82709306503773 ], [ 87.29310097017607, 26.82709306503773 ], [ 87.29310097017607, 26.845059288537552 ], [ 87.275134746676258, 26.845059288537552 ] ] ] } },
{ "type": "Feature", "properties": { "pop_grid": 51392, "pop_own": 51392, "area_own": 12.4 }, "geometry": { "type": "Polygon", "coordinates": [ [ [ 87.230219187926707, 26.674380165289257 ], [ 87.230219187926707, 26.665397053539348 ], [ 87.248185411426519, 26.665397053539348 ], [ 87.248185411426519, 26.656413941789438 ], [ 87.320050305425809, 26.656413941789438 ], [ 87.320050305425809, 26.665397053539348 ], [ 87.284117858426157, 26.665397053539348 ], [ 87.284117858426157, 26.674380165289257 ], [ 87.230219187926707, 26.674380165289257 ] ] ] } },
{ "type": "Feature", "properties": { "pop_grid": 159818, "pop_own": 159818, "area_own": 30.3 }, "geometry": { "type": "Polygon", "coordinates": [ [ [ 87.284117858426157, 26.512684153790875 ], [ 87.284117858426157, 26.503701042040966 ], [ 87.275134746676258, 26.503701042040966 ], [ 87.275134746676258, 26.494717930291053 ], [ 87.266151634926345, 26.494717930291053 ], [ 87.266151634926345, 26.485734818541143 ], [ 87.257168523176432, 26.485734818541143 ], [ 87.257168523176432, 26.440819259791592 ], [ 87.266151634926345, 26.440819259791592 ], [ 87.266151634926345, 26.431836148041683 ], [ 87.275134746676258, 26.431836148041683 ], [ 87.275134746676258, 26.422853036291773 ], [ 87.284117858426157, 26.422853036291773 ], [ 87.284117858426157, 26.431836148041683 ], [ 87.29310097017607, 26.431836148041683 ], [ 87.29310097017607, 26.440819259791592 ], [ 87.302084081925983, 26.440819259791592 ], [ 87.302084081925983, 26.476751706791234 ], [ 87.29310097017607, 26.476751706791234 ], [ 87.29310097017607, 26.512684153790875 ], [ 87.284117858426157, 26.512684153790875 ] ] ] } }
]
}
